{"type":"FeatureCollection","properties":{"source":"OpenStreetMap contributors, natural=coastline (ODbL)","fetched":"2026-09-04","bbox":{"lat_min":37.85,"lat_max":39.05,"lon_min":14.15,"lon_max":15.55},"simplify_m":15.0},"features":[{"type":"Feature","properties":{"kind":"mainland","area_km2":3408.9049},"geometry":{"type":"Polygon","coordinates":[[[15.29718,37.85],[15.29729,37.85024],[15.29808,37.85081],[15.29922,37.85106],[15.29991,37.85077],[15.29999,37.85],[15.3014,37.85],[15.30151,37.85012],[15.30144,37.8504],[15.30076,37.8507],[15.30077,37.85094],[15.30056,37.85063],[15.3002,37.85061],[15.29961,37.85147],[15.2999,37.85228],[15.30074,37.85299],[15.30197,37.85283],[15.30216,37.8522],[15.30251,37.85266],[15.30259,37.85253],[15.30328,37.85294],[15.30413,37.85172],[15.30513,37.85179],[15.3054,37.85157],[15.30551,37.85193],[15.30521,37.85212],[15.30567,37.85233],[15.30555,37.85286],[15.30488,37.85316],[15.30414,37.85441],[15.30358,37.85465],[15.30328,37.85425],[15.30236,37.85427],[15.30188,37.85456],[15.30166,37.85438],[15.30147,37.85465],[15.3015,37.85603],[15.30205,37.85632],[15.30217,37.85599],[15.30252,37.85592],[15.30309,37.85636],[15.30302,37.85692],[15.30254,37.85684],[15.30263,37.8571],[15.30215,37.85783],[15.3008,37.85875],[15.30025,37.85864],[15.30043,37.85826],[15.30138,37.85814],[15.30059,37.85777],[15.29886,37.85831],[15.29765,37.85898],[15.29692,37.85961],[15.29665,37.86116],[15.29674,37.86304],[15.2977,37.86565],[15.29866,37.86672],[15.3053,37.87708],[15.31066,37.88234],[15.31648,37.88699],[15.31993,37.88905],[15.32103,37.89015],[15.32277,37.891],[15.32408,37.89281],[15.33325,37.90337],[15.33358,37.90359],[15.33395,37.90352],[15.33378,37.90377],[15.33979,37.90836],[15.34161,37.9091],[15.34189,37.90895],[15.34149,37.90876],[15.3419,37.90867],[15.34235,37.90894],[15.34227,37.90878],[15.34291,37.90884],[15.3429,37.90919],[15.34214,37.90904],[15.34221,37.90923],[15.34348,37.90973],[15.34423,37.90949],[15.34462,37.90986],[15.34553,37.91008],[15.34589,37.91039],[15.34575,37.91079],[15.34595,37.91103],[15.34639,37.91139],[15.34671,37.91129],[15.34717,37.91159],[15.34717,37.9123],[15.3469,37.91263],[15.34715,37.91268],[15.34705,37.91293],[15.34778,37.91262],[15.34847,37.91316],[15.3474,37.91422],[15.34697,37.9139],[15.34672,37.91447],[15.34629,37.91439],[15.34575,37.91461],[15.34551,37.91446],[15.34538,37.91496],[15.34501,37.91516],[15.34658,37.91939],[15.34866,37.92269],[15.35169,37.9259],[15.35637,37.93013],[15.35749,37.93141],[15.35965,37.93471],[15.36461,37.94059],[15.37496,37.95099],[15.38019,37.95731],[15.38559,37.96286],[15.39529,37.97382],[15.40563,37.98479],[15.41486,37.9928],[15.42273,38.00178],[15.42823,38.00736],[15.43244,38.01037],[15.43637,38.01452],[15.441,38.01871],[15.44132,38.01916],[15.44098,38.02264],[15.44144,38.02407],[15.44539,38.0288],[15.44936,38.03273],[15.45268,38.03535],[15.46168,38.04321],[15.46343,38.0445],[15.46655,38.0462],[15.47493,38.05226],[15.47725,38.05465],[15.47864,38.05857],[15.48174,38.06368],[15.48824,38.06884],[15.49237,38.07312],[15.4936,38.07474],[15.49464,38.07713],[15.49596,38.07914],[15.49592,38.08115],[15.49621,38.08169],[15.49898,38.08442],[15.50267,38.08898],[15.50455,38.09548],[15.50545,38.09656],[15.50625,38.09868],[15.50743,38.09991],[15.50708,38.10043],[15.50725,38.10127],[15.50892,38.10368],[15.50994,38.1059],[15.51161,38.10782],[15.51311,38.11071],[15.51363,38.11332],[15.5146,38.11503],[15.517,38.11753],[15.52062,38.12258],[15.51994,38.12286],[15.52014,38.12314],[15.52041,38.12311],[15.5214,38.12558],[15.52168,38.12571],[15.52084,38.12613],[15.52243,38.12889],[15.52222,38.12916],[15.52568,38.13214],[15.52559,38.13225],[15.52334,38.13116],[15.52313,38.13141],[15.52358,38.13183],[15.5234,38.13206],[15.52484,38.13278],[15.52485,38.13378],[15.52672,38.13578],[15.52656,38.13601],[15.52735,38.13655],[15.52841,38.13846],[15.52836,38.13882],[15.53086,38.14191],[15.53062,38.14208],[15.53075,38.14272],[15.53191,38.14422],[15.53237,38.14516],[15.53228,38.14545],[15.53437,38.14769],[15.53457,38.14857],[15.53679,38.1505],[15.54188,38.1575],[15.54501,38.16016],[15.54612,38.16152],[15.54704,38.16325],[15.54713,38.16411],[15.54839,38.16543],[15.54878,38.16655],[15.55,38.16841],[15.55,38.30062],[15.54748,38.30066],[15.54349,38.30142],[15.54152,38.30143],[15.53645,38.30008],[15.53119,38.29941],[15.52575,38.29735],[15.52409,38.29723],[15.52163,38.2978],[15.51938,38.29723],[15.51296,38.29269],[15.51057,38.29166],[15.49835,38.28343],[15.49676,38.28277],[15.49022,38.27779],[15.48619,38.27516],[15.48411,38.27403],[15.48077,38.27269],[15.47863,38.27107],[15.47446,38.26857],[15.46737,38.26325],[15.46,38.25866],[15.45536,38.25533],[15.45439,38.25488],[15.45013,38.25161],[15.44743,38.25016],[15.44659,38.25],[15.44426,38.24881],[15.44308,38.24872],[15.44264,38.24892],[15.43596,38.24516],[15.43333,38.244],[15.4329,38.24407],[15.42956,38.24242],[15.42814,38.24239],[15.42661,38.24146],[15.42607,38.24149],[15.42612,38.24131],[15.42484,38.24096],[15.42046,38.24073],[15.41827,38.23941],[15.41457,38.23811],[15.41125,38.23645],[15.4094,38.23594],[15.40778,38.235],[15.40578,38.23424],[15.40517,38.23371],[15.40435,38.23355],[15.39998,38.23147],[15.3941,38.22999],[15.39224,38.22913],[15.38894,38.22823],[15.38364,38.22613],[15.37747,38.22439],[15.37534,38.22412],[15.3742,38.2247],[15.36008,38.21951],[15.34824,38.21627],[15.34641,38.21604],[15.34591,38.21624],[15.34596,38.2165],[15.3434,38.2163],[15.33766,38.21492],[15.33212,38.21399],[15.32993,38.21417],[15.32852,38.21473],[15.32779,38.21479],[15.32185,38.21281],[15.30343,38.20798],[15.29751,38.20697],[15.29633,38.207],[15.29599,38.20679],[15.29185,38.20636],[15.28739,38.20622],[15.28666,38.20665],[15.28623,38.20605],[15.28631,38.20667],[15.28585,38.20644],[15.28387,38.20645],[15.28141,38.20672],[15.2815,38.20614],[15.28089,38.20683],[15.27844,38.20681],[15.275,38.2072],[15.27404,38.20738],[15.27372,38.20768],[15.26549,38.20781],[15.26521,38.20761],[15.26177,38.20802],[15.25681,38.20899],[15.2534,38.20993],[15.24949,38.21151],[15.24777,38.21254],[15.24749,38.213],[15.24718,38.21285],[15.24667,38.21344],[15.2465,38.21393],[15.24699,38.2144],[15.24688,38.21457],[15.24566,38.2138],[15.24444,38.21465],[15.24563,38.21559],[15.24384,38.21512],[15.24377,38.21551],[15.24205,38.2171],[15.24128,38.21686],[15.24094,38.21771],[15.24152,38.21776],[15.24089,38.21784],[15.24094,38.21827],[15.24141,38.21829],[15.24111,38.21849],[15.24225,38.2198],[15.24529,38.21784],[15.24676,38.21786],[15.24946,38.21612],[15.2495,38.21588],[15.24977,38.21609],[15.24662,38.2183],[15.24555,38.21843],[15.24366,38.21987],[15.24329,38.2253],[15.24375,38.22673],[15.24463,38.22769],[15.24644,38.22875],[15.24662,38.22868],[15.24733,38.22968],[15.2483,38.2304],[15.24914,38.22977],[15.24936,38.22992],[15.24888,38.23022],[15.24882,38.23121],[15.2493,38.23234],[15.25015,38.2329],[15.24984,38.23303],[15.24962,38.23374],[15.24996,38.23531],[15.24933,38.23709],[15.24931,38.2391],[15.24962,38.23922],[15.24976,38.23987],[15.25117,38.24164],[15.25172,38.24286],[15.25294,38.24403],[15.25372,38.24531],[15.2529,38.24687],[15.25304,38.24744],[15.25235,38.24848],[15.25235,38.24901],[15.25262,38.24916],[15.25176,38.25064],[15.25186,38.25206],[15.25153,38.25215],[15.25148,38.25294],[15.24989,38.25455],[15.25027,38.25581],[15.24706,38.25782],[15.24453,38.26069],[15.2444,38.26123],[15.24519,38.26209],[15.24439,38.2627],[15.24434,38.2631],[15.24388,38.26315],[15.24414,38.26385],[15.24406,38.26368],[15.24347,38.26369],[15.243,38.26398],[15.24221,38.26571],[15.24032,38.26695],[15.23953,38.26821],[15.23985,38.27009],[15.23944,38.2712],[15.23934,38.27078],[15.23833,38.26998],[15.23747,38.26963],[15.2366,38.26957],[15.23431,38.2702],[15.23428,38.27047],[15.23335,38.27094],[15.23289,38.27158],[15.23239,38.27168],[15.23188,38.27129],[15.23111,38.27144],[15.22994,38.27081],[15.227,38.27027],[15.22644,38.26986],[15.2256,38.26965],[15.22486,38.27016],[15.22443,38.27018],[15.22427,38.27003],[15.22459,38.26951],[15.22432,38.26931],[15.22475,38.2691],[15.22452,38.26903],[15.22457,38.26823],[15.22561,38.26807],[15.22569,38.2684],[15.22607,38.2681],[15.2266,38.26816],[15.22752,38.26891],[15.22907,38.2691],[15.2333,38.26796],[15.23478,38.26714],[15.23593,38.26602],[15.23691,38.26397],[15.23689,38.26312],[15.2363,38.26193],[15.2376,38.2608],[15.23768,38.26037],[15.23679,38.25972],[15.23695,38.25816],[15.23659,38.25727],[15.23585,38.25669],[15.23542,38.25473],[15.23468,38.25416],[15.23545,38.25402],[15.23572,38.25368],[15.23594,38.25286],[15.23556,38.25292],[15.23539,38.25256],[15.2357,38.25237],[15.23563,38.25133],[15.23581,38.25121],[15.23597,38.25144],[15.23691,38.25066],[15.23629,38.25019],[15.23627,38.24989],[15.23586,38.24979],[15.23636,38.24888],[15.23626,38.24823],[15.23654,38.24786],[15.23707,38.24782],[15.23739,38.24736],[15.23675,38.24693],[15.23701,38.24656],[15.2369,38.24604],[15.23781,38.24532],[15.24053,38.24551],[15.24108,38.24452],[15.24106,38.24273],[15.23761,38.23255],[15.22925,38.21307],[15.22584,38.20587],[15.22026,38.19713],[15.21593,38.19136],[15.21352,38.18749],[15.20519,38.17948],[15.20001,38.17594],[15.18945,38.16686],[15.18332,38.15996],[15.17847,38.15628],[15.17738,38.15554],[15.17685,38.1555],[15.17603,38.15453],[15.17554,38.15452],[15.17077,38.15167],[15.16801,38.1503],[15.16765,38.15036],[15.16418,38.1488],[15.16275,38.14873],[15.15394,38.144],[15.15294,38.14364],[15.15198,38.14363],[15.14967,38.14245],[15.14742,38.14203],[15.1441,38.14104],[15.13824,38.13889],[15.13772,38.13895],[15.13536,38.13828],[15.13377,38.13822],[15.13242,38.1379],[15.13112,38.13702],[15.12954,38.13633],[15.12844,38.13535],[15.12727,38.1349],[15.12733,38.13447],[15.1244,38.1333],[15.12328,38.13235],[15.11884,38.13032],[15.11358,38.12718],[15.11256,38.12684],[15.1112,38.12731],[15.11106,38.12715],[15.11198,38.12682],[15.11053,38.1263],[15.11045,38.12712],[15.11108,38.12798],[15.11084,38.12812],[15.11016,38.12692],[15.11046,38.12595],[15.10959,38.1254],[15.10609,38.12382],[15.09808,38.12132],[15.09328,38.12038],[15.08858,38.12011],[15.08725,38.12039],[15.08437,38.12021],[15.08276,38.12052],[15.08196,38.12045],[15.08105,38.12089],[15.08008,38.12081],[15.07923,38.121],[15.07916,38.12127],[15.07759,38.12144],[15.07691,38.12173],[15.07694,38.12192],[15.07446,38.12239],[15.07288,38.12318],[15.07168,38.12504],[15.07031,38.12591],[15.07019,38.12641],[15.07079,38.12665],[15.06885,38.12736],[15.06694,38.12726],[15.06355,38.12771],[15.06114,38.12826],[15.05899,38.12911],[15.0564,38.13135],[15.05559,38.13272],[15.05463,38.13875],[15.05491,38.14027],[15.05555,38.14166],[15.056,38.14186],[15.05809,38.14175],[15.05981,38.14199],[15.06272,38.14182],[15.06437,38.14149],[15.06489,38.14171],[15.0649,38.14248],[15.06425,38.14286],[15.05501,38.14269],[15.05179,38.14339],[15.04804,38.14487],[15.04729,38.14531],[15.04755,38.14579],[15.04678,38.14678],[15.04678,38.14735],[15.04705,38.14763],[15.04645,38.14872],[15.04669,38.14899],[15.0466,38.14986],[15.04729,38.15036],[15.04604,38.15102],[15.04624,38.15161],[15.04531,38.15157],[15.04482,38.15204],[15.04348,38.15152],[15.04268,38.1521],[15.03903,38.15096],[15.03869,38.15095],[15.0383,38.15147],[15.03625,38.15096],[15.03585,38.15147],[15.02997,38.14986],[15.02839,38.15007],[15.02763,38.15059],[15.02749,38.15109],[15.02627,38.15083],[15.0259,38.1512],[15.02583,38.15103],[15.02454,38.15088],[15.02422,38.151],[15.01883,38.14964],[15.01821,38.14972],[15.01279,38.14904],[15.00917,38.14897],[15.00615,38.14905],[15.00189,38.14953],[14.99879,38.15038],[14.9929,38.15142],[14.98872,38.15109],[14.98545,38.15024],[14.9849,38.15046],[14.98233,38.15012],[14.98177,38.15017],[14.98162,38.15044],[14.97549,38.15093],[14.973,38.15179],[14.97185,38.15254],[14.9701,38.15295],[14.96737,38.15434],[14.96642,38.15562],[14.96362,38.15824],[14.95978,38.16071],[14.95956,38.16135],[14.95845,38.16249],[14.95758,38.16292],[14.95556,38.16549],[14.95482,38.16609],[14.95282,38.16705],[14.95027,38.16902],[14.94809,38.17227],[14.94726,38.1751],[14.94673,38.17596],[14.94622,38.17641],[14.94355,38.17739],[14.9434,38.17799],[14.94219,38.17862],[14.94188,38.1791],[14.94202,38.17955],[14.9409,38.17961],[14.9406,38.1799],[14.93988,38.17983],[14.93931,38.18021],[14.93789,38.18035],[14.93722,38.18062],[14.93718,38.18105],[14.93671,38.18153],[14.93267,38.18215],[14.93175,38.18283],[14.92911,38.18377],[14.92839,38.18498],[14.92834,38.18645],[14.92796,38.18673],[14.9262,38.18714],[14.92444,38.18858],[14.92387,38.1896],[14.92197,38.18993],[14.92187,38.1904],[14.92143,38.19056],[14.92004,38.19018],[14.91871,38.19041],[14.91702,38.19161],[14.91665,38.19162],[14.9157,38.19273],[14.91491,38.19258],[14.91458,38.19226],[14.91458,38.19169],[14.91284,38.18999],[14.90728,38.18522],[14.90594,38.18472],[14.9052,38.18483],[14.90361,38.18416],[14.90226,38.18422],[14.90136,38.18357],[14.89731,38.17859],[14.89608,38.17733],[14.89535,38.17704],[14.89403,38.17506],[14.89209,38.17348],[14.88927,38.1719],[14.88728,38.17168],[14.88216,38.17],[14.8777,38.16903],[14.87569,38.1681],[14.87518,38.1684],[14.87304,38.1679],[14.86766,38.16801],[14.86451,38.16848],[14.86165,38.16849],[14.86044,38.16905],[14.85946,38.1686],[14.85892,38.1686],[14.85821,38.16898],[14.85758,38.16897],[14.85731,38.16945],[14.85603,38.16846],[14.85247,38.16712],[14.85118,38.16689],[14.85055,38.16647],[14.84707,38.16534],[14.84356,38.16388],[14.84165,38.16355],[14.83918,38.16278],[14.83795,38.1629],[14.83618,38.16239],[14.83577,38.16278],[14.83493,38.16235],[14.83388,38.16221],[14.83214,38.16159],[14.83193,38.16174],[14.83101,38.16143],[14.82918,38.16132],[14.82849,38.16168],[14.82687,38.16105],[14.82474,38.16076],[14.81957,38.15925],[14.81846,38.15938],[14.81657,38.15861],[14.81388,38.15801],[14.80983,38.15639],[14.80553,38.15529],[14.80273,38.1556],[14.80265,38.15581],[14.80218,38.15565],[14.80022,38.15581],[14.79542,38.15371],[14.79041,38.15207],[14.79011,38.15226],[14.78921,38.15193],[14.78898,38.15211],[14.78748,38.15169],[14.78508,38.15157],[14.78315,38.15263],[14.78302,38.15295],[14.78333,38.15318],[14.78279,38.1538],[14.78208,38.1535],[14.77817,38.15466],[14.77701,38.15427],[14.77603,38.15474],[14.77533,38.15471],[14.77486,38.1564],[14.77468,38.15628],[14.77486,38.15555],[14.77459,38.15548],[14.77472,38.15528],[14.77451,38.15544],[14.77408,38.15512],[14.77403,38.15465],[14.77272,38.15436],[14.77192,38.15458],[14.77089,38.15425],[14.77003,38.15426],[14.76975,38.1545],[14.76989,38.15628],[14.77401,38.15722],[14.77433,38.15722],[14.77457,38.15691],[14.77458,38.15727],[14.77525,38.15754],[14.77617,38.15747],[14.77729,38.15685],[14.77734,38.15724],[14.77585,38.15782],[14.77505,38.15782],[14.76665,38.15586],[14.76555,38.15593],[14.76426,38.15662],[14.76337,38.15645],[14.76134,38.1565],[14.76077,38.15679],[14.75876,38.15913],[14.75631,38.15971],[14.75396,38.16146],[14.75267,38.16174],[14.75153,38.1624],[14.75014,38.16458],[14.75081,38.16547],[14.75073,38.16574],[14.74873,38.16601],[14.74735,38.16505],[14.74659,38.16496],[14.746,38.16412],[14.74349,38.1623],[14.7414,38.16037],[14.74106,38.15971],[14.73996,38.15894],[14.73945,38.1581],[14.73571,38.15476],[14.73042,38.14908],[14.7258,38.14521],[14.71953,38.13882],[14.71893,38.13852],[14.71809,38.13742],[14.71753,38.13714],[14.71676,38.13614],[14.71605,38.13577],[14.71558,38.13499],[14.71225,38.13166],[14.70704,38.12696],[14.70305,38.12238],[14.7027,38.12225],[14.70224,38.12246],[14.70246,38.12212],[14.70096,38.12059],[14.70052,38.12022],[14.70007,38.12033],[14.69994,38.11989],[14.69486,38.11479],[14.68376,38.10413],[14.68018,38.10109],[14.67555,38.09733],[14.66781,38.09209],[14.6609,38.08863],[14.65648,38.088],[14.64904,38.08144],[14.64628,38.07928],[14.64051,38.07541],[14.63793,38.07397],[14.63354,38.0716],[14.63104,38.07094],[14.62828,38.07088],[14.62685,38.07132],[14.62716,38.07416],[14.62677,38.07505],[14.6265,38.07516],[14.62633,38.07495],[14.62686,38.07407],[14.6264,38.07111],[14.6225,38.07138],[14.62237,38.07115],[14.62239,38.07139],[14.62117,38.07147],[14.62103,38.07131],[14.62105,38.07148],[14.61998,38.07155],[14.6197,38.07244],[14.62025,38.07442],[14.62141,38.07434],[14.62101,38.07485],[14.62159,38.0754],[14.62154,38.07561],[14.62741,38.07649],[14.62758,38.07671],[14.62677,38.07685],[14.62134,38.076],[14.61987,38.0747],[14.61581,38.07242],[14.61132,38.0704],[14.60823,38.06935],[14.60127,38.0652],[14.59777,38.0635],[14.59413,38.06185],[14.58993,38.06027],[14.58527,38.05908],[14.58076,38.05866],[14.58016,38.0589],[14.57771,38.05881],[14.57617,38.05908],[14.57308,38.05887],[14.57072,38.05904],[14.56513,38.05994],[14.55678,38.06053],[14.55259,38.05799],[14.54867,38.05488],[14.53757,38.04749],[14.5327,38.04465],[14.52599,38.04246],[14.52461,38.04238],[14.52098,38.04153],[14.51896,38.04142],[14.5147,38.04073],[14.51135,38.04072],[14.50493,38.03895],[14.49998,38.03846],[14.49259,38.03655],[14.48521,38.03649],[14.48138,38.0349],[14.47799,38.03391],[14.47465,38.03314],[14.47124,38.03293],[14.47056,38.03303],[14.46846,38.03422],[14.46382,38.03316],[14.46054,38.0332],[14.4569,38.03291],[14.45392,38.03314],[14.44802,38.03413],[14.4457,38.03504],[14.44426,38.03598],[14.44396,38.03623],[14.44312,38.0385],[14.44188,38.03949],[14.4402,38.04018],[14.43848,38.04061],[14.43687,38.04073],[14.42686,38.0404],[14.42431,38.03983],[14.42271,38.03915],[14.40882,38.03004],[14.39624,38.02305],[14.39439,38.02243],[14.39147,38.02274],[14.39,38.02243],[14.38473,38.01993],[14.38295,38.01957],[14.37906,38.01778],[14.3734,38.01585],[14.3724,38.01576],[14.37076,38.01608],[14.36888,38.01538],[14.36786,38.01539],[14.3666,38.01502],[14.36266,38.01447],[14.35792,38.01486],[14.35674,38.01534],[14.35694,38.01562],[14.35633,38.01584],[14.35595,38.01658],[14.35625,38.01668],[14.35422,38.01714],[14.35304,38.01785],[14.35148,38.01837],[14.34537,38.01913],[14.34168,38.01918],[14.33759,38.01821],[14.33429,38.01634],[14.32886,38.0137],[14.32388,38.0116],[14.31296,38.0084],[14.30787,38.00786],[14.30342,38.00886],[14.2964,38.00706],[14.29442,38.00694],[14.29034,38.00711],[14.28884,38.00693],[14.2855,38.00728],[14.28175,38.00896],[14.27575,38.01011],[14.27365,38.01187],[14.27296,38.01224],[14.27107,38.01268],[14.26978,38.01253],[14.25822,38.00915],[14.25584,38.00874],[14.25392,38.00869],[14.25284,38.00881],[14.2517,38.00935],[14.25139,38.01064],[14.25153,38.01122],[14.24749,38.01092],[14.24446,38.01031],[14.24222,38.01032],[14.24128,38.01062],[14.23931,38.01078],[14.2354,38.01019],[14.23399,38.01018],[14.23192,38.01052],[14.22979,38.01022],[14.22786,38.01027],[14.22492,38.01197],[14.22379,38.01219],[14.22065,38.01264],[14.21577,38.01244],[14.21312,38.01391],[14.21018,38.01487],[14.20744,38.01494],[14.20628,38.0153],[14.20306,38.01515],[14.20036,38.01552],[14.19852,38.01546],[14.19459,38.01635],[14.19261,38.01657],[14.19162,38.01707],[14.18967,38.01736],[14.18764,38.01837],[14.18749,38.01873],[14.18298,38.01954],[14.18018,38.02052],[14.1769,38.02035],[14.17578,38.0201],[14.17153,38.01838],[14.17077,38.01817],[14.16973,38.01821],[14.16429,38.02057],[14.16376,38.02103],[14.16272,38.02125],[14.16212,38.02173],[14.15831,38.02271],[14.15389,38.02427],[14.15269,38.02528],[14.15296,38.02608],[14.15262,38.02581],[14.1524,38.02614],[14.15105,38.0264],[14.1509,38.02674],[14.15041,38.02686],[14.15,38.02727],[14.15,37.85],[15.29718,37.85]]]}},{"type":"Feature","properties":{"kind":"island","area_km2":37.222},"geometry":{"type":"Polygon","coordinates":[[[14.9034,38.47554],[14.90424,38.47485],[14.9042,38.47424],[14.90481,38.47402],[14.90471,38.4738],[14.90639,38.47235],[14.90745,38.4718],[14.90859,38.4706],[14.90906,38.47046],[14.91014,38.46932],[14.91032,38.46941],[14.91028,38.46912],[14.91066,38.46915],[14.91115,38.46755],[14.91094,38.467],[14.91046,38.46692],[14.91073,38.46658],[14.91203,38.46608],[14.91282,38.46524],[14.91482,38.46447],[14.91629,38.4642],[14.91658,38.46372],[14.91716,38.46369],[14.9175,38.4629],[14.91794,38.46282],[14.9186,38.46335],[14.91924,38.46314],[14.91994,38.4625],[14.92194,38.46269],[14.92516,38.4624],[14.92804,38.46187],[14.93037,38.46084],[14.93206,38.46131],[14.93246,38.46124],[14.93384,38.46043],[14.93586,38.45773],[14.93696,38.45529],[14.93633,38.45498],[14.93622,38.45464],[14.9369,38.45389],[14.93666,38.45376],[14.93622,38.45394],[14.93588,38.45362],[14.93676,38.45329],[14.93725,38.45328],[14.93751,38.45352],[14.93814,38.4532],[14.93864,38.4533],[14.93894,38.4527],[14.94039,38.45174],[14.94265,38.44915],[14.94268,38.44704],[14.94339,38.44546],[14.94269,38.4452],[14.94299,38.44477],[14.94319,38.44321],[14.94304,38.44297],[14.94188,38.44267],[14.94309,38.44264],[14.94314,38.44283],[14.94359,38.44243],[14.94386,38.44265],[14.94414,38.44252],[14.94406,38.44232],[14.94453,38.44229],[14.94498,38.44176],[14.94485,38.44156],[14.94552,38.4417],[14.94649,38.44102],[14.94849,38.44167],[14.94995,38.4418],[14.95167,38.44112],[14.95261,38.44038],[14.95327,38.44023],[14.95305,38.43935],[14.95337,38.43947],[14.954,38.4391],[14.95645,38.4398],[14.95659,38.44041],[14.95729,38.44132],[14.95824,38.44173],[14.95918,38.44332],[14.95912,38.44387],[14.95955,38.44462],[14.95942,38.4452],[14.95964,38.44548],[14.95934,38.44575],[14.9595,38.4475],[14.96018,38.44798],[14.96021,38.44835],[14.96153,38.44896],[14.96159,38.44943],[14.96118,38.44952],[14.96079,38.45078],[14.96098,38.45101],[14.96223,38.45123],[14.96259,38.45237],[14.96225,38.45352],[14.96152,38.45342],[14.96022,38.45421],[14.95984,38.45452],[14.96018,38.45479],[14.96006,38.4552],[14.95964,38.45529],[14.95933,38.45501],[14.95888,38.45521],[14.95851,38.45621],[14.9577,38.45719],[14.9579,38.45805],[14.95752,38.45814],[14.95783,38.45829],[14.95759,38.45837],[14.95778,38.45883],[14.95729,38.45892],[14.95738,38.45918],[14.95636,38.45966],[14.95615,38.4601],[14.95609,38.46091],[14.95704,38.4617],[14.95678,38.46192],[14.95708,38.4624],[14.95665,38.46391],[14.95675,38.46457],[14.95717,38.46477],[14.95804,38.46362],[14.95756,38.46492],[14.95827,38.46562],[14.95718,38.46482],[14.9569,38.46499],[14.95703,38.46574],[14.95799,38.46642],[14.95813,38.46707],[14.95799,38.46774],[14.95729,38.46813],[14.95726,38.46852],[14.9578,38.4689],[14.95735,38.4697],[14.9571,38.46989],[14.95601,38.46955],[14.95577,38.47014],[14.95497,38.47099],[14.95478,38.47087],[14.95491,38.47109],[14.95438,38.47159],[14.95475,38.47373],[14.95507,38.47376],[14.95528,38.4746],[14.95569,38.47467],[14.95629,38.47612],[14.9573,38.47715],[14.95837,38.47767],[14.96088,38.47807],[14.96228,38.4788],[14.96343,38.47878],[14.96518,38.47808],[14.96488,38.47769],[14.96288,38.47695],[14.96294,38.47682],[14.96555,38.47776],[14.96778,38.47719],[14.96873,38.4772],[14.96999,38.47749],[14.97199,38.47756],[14.97309,38.478],[14.97588,38.47816],[14.97946,38.4792],[14.98006,38.48018],[14.98004,38.48192],[14.98055,38.48278],[14.98042,38.48358],[14.97954,38.4845],[14.97882,38.48477],[14.97833,38.48532],[14.97795,38.48522],[14.97629,38.48599],[14.97531,38.4861],[14.97324,38.48578],[14.97151,38.48505],[14.97,38.48528],[14.96774,38.48618],[14.9662,38.4871],[14.96452,38.4885],[14.96278,38.49065],[14.96259,38.49114],[14.96331,38.49136],[14.963,38.49136],[14.9627,38.49192],[14.96208,38.49422],[14.96179,38.4957],[14.96215,38.49637],[14.96168,38.49887],[14.96235,38.50012],[14.96291,38.5004],[14.96302,38.50225],[14.96428,38.50339],[14.96404,38.50476],[14.96481,38.50547],[14.96433,38.50672],[14.96454,38.50685],[14.96342,38.50832],[14.96398,38.50877],[14.96368,38.50951],[14.96385,38.50971],[14.96294,38.51067],[14.96309,38.51079],[14.96279,38.51143],[14.96117,38.51402],[14.96008,38.51649],[14.96006,38.51695],[14.96065,38.51716],[14.96042,38.5173],[14.96041,38.5179],[14.96071,38.5189],[14.9616,38.5204],[14.96239,38.5212],[14.96027,38.52335],[14.95968,38.52357],[14.95815,38.52348],[14.95792,38.52312],[14.95439,38.52181],[14.95316,38.52205],[14.9523,38.5217],[14.95188,38.52175],[14.95121,38.52114],[14.95051,38.52105],[14.94955,38.52037],[14.94875,38.52043],[14.9485,38.52014],[14.94827,38.52025],[14.94815,38.51998],[14.94756,38.51985],[14.94241,38.51946],[14.93806,38.51959],[14.93585,38.5201],[14.93167,38.52012],[14.92992,38.52083],[14.92818,38.52215],[14.9263,38.52273],[14.92336,38.5217],[14.92231,38.52158],[14.91893,38.52014],[14.91718,38.51984],[14.91565,38.51918],[14.91291,38.51849],[14.91174,38.51687],[14.91097,38.51647],[14.91062,38.51596],[14.91011,38.51604],[14.90956,38.51579],[14.9094,38.51534],[14.90819,38.51466],[14.90765,38.51384],[14.90633,38.51307],[14.90622,38.51264],[14.9054,38.51199],[14.90397,38.50732],[14.90389,38.50315],[14.90435,38.50232],[14.9042,38.50134],[14.90445,38.50102],[14.9038,38.49927],[14.90401,38.49909],[14.90316,38.49886],[14.90343,38.49809],[14.9028,38.49735],[14.90238,38.4973],[14.90257,38.49677],[14.90199,38.49596],[14.90231,38.4958],[14.9018,38.49572],[14.90258,38.49474],[14.90248,38.49433],[14.90185,38.49309],[14.90107,38.49261],[14.89966,38.49098],[14.90015,38.49054],[14.89826,38.49005],[14.89871,38.48968],[14.89897,38.48972],[14.89919,38.48928],[14.8997,38.48928],[14.9011,38.48841],[14.89948,38.48715],[14.89883,38.48701],[14.89922,38.4866],[14.8989,38.48626],[14.89825,38.48658],[14.89764,38.48614],[14.89823,38.48535],[14.89917,38.48542],[14.89985,38.48588],[14.90048,38.48576],[14.90041,38.48488],[14.90092,38.48434],[14.89989,38.48316],[14.90011,38.48213],[14.8993,38.4818],[14.89909,38.48124],[14.89919,38.48091],[14.8996,38.48099],[14.9003,38.48052],[14.89919,38.47881],[14.8997,38.47873],[14.89963,38.47827],[14.90098,38.47749],[14.90139,38.47654],[14.90204,38.47595],[14.90316,38.47577],[14.9034,38.47554]]]}},{"type":"Feature","properties":{"kind":"island","area_km2":26.1616},"geometry":{"type":"Polygon","coordinates":[[[14.8468,38.53821],[14.84788,38.53775],[14.84913,38.53654],[14.84995,38.53652],[14.85096,38.53596],[14.85386,38.53544],[14.8548,38.53495],[14.85581,38.53484],[14.85638,38.53458],[14.85647,38.53428],[14.85723,38.53466],[14.85757,38.53451],[14.85874,38.53461],[14.85973,38.53554],[14.86095,38.53609],[14.86207,38.53596],[14.86366,38.53638],[14.86629,38.53602],[14.86804,38.53667],[14.87084,38.5369],[14.87165,38.53717],[14.87129,38.53766],[14.87135,38.53826],[14.87013,38.53942],[14.86953,38.54097],[14.86953,38.54126],[14.86985,38.54128],[14.86955,38.54133],[14.86934,38.54211],[14.86963,38.54267],[14.8694,38.54311],[14.86955,38.5447],[14.86838,38.54683],[14.86889,38.54752],[14.86816,38.55026],[14.86844,38.55249],[14.86923,38.55426],[14.86979,38.55458],[14.86998,38.55446],[14.8706,38.55528],[14.8708,38.55515],[14.87057,38.55543],[14.87125,38.55657],[14.87188,38.5567],[14.87208,38.55655],[14.87209,38.55582],[14.8716,38.55448],[14.87229,38.55561],[14.87232,38.55698],[14.87163,38.55695],[14.87184,38.55788],[14.87155,38.5579],[14.87167,38.55816],[14.87188,38.55803],[14.87194,38.55851],[14.87176,38.55858],[14.87229,38.55881],[14.87332,38.5581],[14.87345,38.55712],[14.87362,38.55713],[14.8735,38.55824],[14.87279,38.55876],[14.87285,38.55944],[14.87362,38.56129],[14.87482,38.56202],[14.87502,38.56308],[14.87322,38.56653],[14.8729,38.56825],[14.87183,38.56965],[14.8714,38.57114],[14.87157,38.57247],[14.87093,38.57704],[14.87182,38.57838],[14.87235,38.58055],[14.86969,38.58228],[14.86722,38.58313],[14.86474,38.58303],[14.86256,38.58247],[14.86179,38.5825],[14.86145,38.58274],[14.8613,38.58248],[14.8576,38.58261],[14.85602,38.58188],[14.8547,38.58164],[14.85277,38.5807],[14.85088,38.58013],[14.85007,38.58019],[14.84835,38.57968],[14.84598,38.57949],[14.84167,38.58049],[14.83983,38.58063],[14.83955,38.58075],[14.83957,38.58118],[14.83942,38.58078],[14.83904,38.58075],[14.83844,38.58123],[14.83889,38.58135],[14.83877,38.58161],[14.8402,38.58174],[14.8404,38.58136],[14.8403,38.58206],[14.83721,38.58161],[14.83583,38.58195],[14.8353,38.58292],[14.83498,38.58258],[14.83385,38.58249],[14.83285,38.583],[14.83206,38.58307],[14.82961,38.58278],[14.82694,38.58206],[14.82673,38.5823],[14.82587,38.58205],[14.8233,38.58212],[14.82095,38.58294],[14.81988,38.58302],[14.81749,38.58398],[14.81671,38.58377],[14.8157,38.58386],[14.81573,38.58349],[14.81506,38.58352],[14.81336,38.58282],[14.81246,38.58302],[14.81182,38.58281],[14.81132,38.58313],[14.81128,38.58277],[14.80964,38.58237],[14.80861,38.58246],[14.80765,38.58302],[14.80717,38.58269],[14.8065,38.58299],[14.80682,38.58244],[14.80625,38.58204],[14.80586,38.58206],[14.80618,38.58192],[14.80602,38.58161],[14.80533,38.58139],[14.80538,38.58118],[14.80614,38.58106],[14.80709,38.58048],[14.80686,38.57946],[14.80392,38.57735],[14.80185,38.57421],[14.80148,38.57403],[14.80051,38.57438],[14.80053,38.57415],[14.79994,38.57387],[14.80035,38.5727],[14.80026,38.57226],[14.79958,38.57133],[14.79856,38.57056],[14.79882,38.56901],[14.79962,38.56806],[14.79966,38.56701],[14.796,38.56309],[14.79597,38.56214],[14.7966,38.56093],[14.79935,38.5587],[14.80139,38.55733],[14.80178,38.55733],[14.80226,38.55632],[14.80368,38.55474],[14.80402,38.55481],[14.8077,38.55288],[14.80852,38.55311],[14.80966,38.55298],[14.81137,38.55221],[14.81341,38.5508],[14.81435,38.55115],[14.81537,38.55118],[14.81878,38.55029],[14.82024,38.54953],[14.82104,38.54831],[14.82077,38.54801],[14.82113,38.54776],[14.82238,38.54772],[14.82323,38.54799],[14.82515,38.54722],[14.82697,38.54702],[14.8269,38.54716],[14.82756,38.5471],[14.82806,38.54733],[14.82866,38.54636],[14.82889,38.54643],[14.82839,38.54723],[14.82891,38.54745],[14.82872,38.54768],[14.82942,38.54788],[14.83045,38.54771],[14.83055,38.54743],[14.83087,38.54752],[14.83126,38.54708],[14.83155,38.54634],[14.83364,38.54548],[14.83475,38.54453],[14.83628,38.54385],[14.83701,38.5431],[14.83901,38.54176],[14.84088,38.54091],[14.84173,38.54081],[14.84313,38.54022],[14.84577,38.53882],[14.84592,38.53851],[14.84619,38.53863],[14.8468,38.53821]]]}},{"type":"Feature","properties":{"kind":"island","area_km2":20.8327},"geometry":{"type":"Polygon","coordinates":[[[14.99723,38.37029],[14.99855,38.37041],[14.99954,38.37022],[14.99988,38.36975],[15.00067,38.37048],[15.00114,38.37042],[15.00124,38.37006],[15.00245,38.37017],[15.00278,38.37047],[15.00225,38.37168],[15.00226,38.3724],[15.00262,38.37298],[15.00381,38.37395],[15.00654,38.37379],[15.00645,38.37451],[15.00673,38.37516],[15.00647,38.37569],[15.00521,38.37589],[15.00516,38.37637],[15.0036,38.37723],[15.00155,38.37984],[15.00073,38.38049],[14.99972,38.38226],[14.99938,38.38246],[14.99915,38.38315],[14.99961,38.38375],[14.99938,38.38416],[14.99953,38.38469],[14.99991,38.3848],[14.99965,38.3851],[14.99974,38.38546],[14.99991,38.38566],[15.00068,38.38565],[15.00095,38.38631],[15.00024,38.38666],[14.99981,38.38733],[14.9998,38.38907],[14.99894,38.39155],[14.99828,38.39197],[14.99775,38.39303],[14.99723,38.3933],[14.99748,38.39405],[14.99724,38.39394],[14.99733,38.39517],[14.99684,38.39578],[14.99718,38.39614],[14.99582,38.39636],[14.99595,38.39646],[14.99547,38.39691],[14.99581,38.3977],[14.9953,38.39755],[14.99507,38.39778],[14.99534,38.39812],[14.99514,38.39828],[14.99423,38.3979],[14.99446,38.3981],[14.99414,38.39822],[14.99448,38.3987],[14.99395,38.39873],[14.99342,38.39945],[14.99283,38.39965],[14.99261,38.39963],[14.99266,38.39938],[14.99157,38.3998],[14.99166,38.40071],[14.99115,38.40043],[14.9905,38.40088],[14.99088,38.40138],[14.99099,38.40234],[14.99052,38.40194],[14.98981,38.40205],[14.98922,38.40274],[14.98884,38.40265],[14.98847,38.403],[14.98682,38.40342],[14.98586,38.40416],[14.98533,38.40501],[14.98523,38.40713],[14.98475,38.40816],[14.98344,38.40966],[14.98198,38.41053],[14.98127,38.4104],[14.98059,38.40939],[14.98055,38.40965],[14.9804,38.40957],[14.98065,38.40908],[14.98039,38.40886],[14.97739,38.40792],[14.97759,38.40755],[14.97632,38.40706],[14.97492,38.40789],[14.97371,38.40895],[14.97158,38.40921],[14.97087,38.40985],[14.97091,38.41122],[14.96962,38.41242],[14.97006,38.41257],[14.96982,38.4128],[14.97022,38.41284],[14.96983,38.41298],[14.96975,38.41341],[14.96935,38.41362],[14.96888,38.41329],[14.9686,38.41366],[14.96858,38.41327],[14.96821,38.41321],[14.9679,38.41336],[14.96781,38.41378],[14.96674,38.41389],[14.96659,38.41341],[14.96597,38.413],[14.96508,38.41301],[14.96436,38.41272],[14.96413,38.41224],[14.96351,38.41211],[14.96314,38.41234],[14.96225,38.4123],[14.96096,38.41328],[14.9602,38.41431],[14.96087,38.41537],[14.96195,38.41527],[14.96197,38.41552],[14.96096,38.41564],[14.96091,38.41603],[14.96023,38.41611],[14.95995,38.41636],[14.95961,38.41789],[14.95996,38.41897],[14.96211,38.41993],[14.963,38.42001],[14.96482,38.42094],[14.96572,38.42168],[14.96756,38.42254],[14.96812,38.4241],[14.96838,38.4241],[14.9682,38.42417],[14.96835,38.42489],[14.9688,38.42528],[14.9687,38.4258],[14.969,38.42609],[14.96823,38.42604],[14.96811,38.42635],[14.96616,38.42727],[14.96557,38.42791],[14.96557,38.42835],[14.96495,38.42885],[14.96523,38.42948],[14.96446,38.42958],[14.96275,38.43096],[14.96137,38.43156],[14.96046,38.43223],[14.95914,38.43206],[14.9561,38.43079],[14.95363,38.42816],[14.95348,38.42726],[14.95372,38.42608],[14.95347,38.4243],[14.95254,38.42383],[14.95287,38.42371],[14.95307,38.4239],[14.95331,38.42343],[14.95263,38.42303],[14.95331,38.4228],[14.95368,38.4219],[14.95456,38.42124],[14.95504,38.42109],[14.95518,38.42128],[14.95613,38.42122],[14.9564,38.41969],[14.95563,38.4186],[14.95326,38.41776],[14.95231,38.41866],[14.95253,38.41917],[14.95229,38.41902],[14.95195,38.41936],[14.95143,38.41943],[14.95045,38.41931],[14.94801,38.42037],[14.94785,38.41985],[14.94948,38.41894],[14.94946,38.41824],[14.94855,38.41735],[14.94715,38.41719],[14.94558,38.41783],[14.94407,38.41767],[14.94305,38.4181],[14.94244,38.41892],[14.94184,38.41891],[14.94207,38.41835],[14.94377,38.41716],[14.94461,38.41723],[14.94715,38.41668],[14.94712,38.41581],[14.94674,38.41487],[14.94528,38.41367],[14.94409,38.41324],[14.94269,38.41373],[14.94313,38.41328],[14.94282,38.41327],[14.94332,38.41302],[14.94281,38.41214],[14.94229,38.41189],[14.94165,38.41209],[14.9417,38.4116],[14.94205,38.4116],[14.94218,38.41115],[14.94139,38.41127],[14.93992,38.41208],[14.93999,38.41181],[14.93961,38.41172],[14.939,38.41216],[14.93865,38.41185],[14.9395,38.41134],[14.93983,38.41063],[14.93979,38.41024],[14.93891,38.40938],[14.93933,38.40814],[14.93926,38.408],[14.93896,38.40826],[14.93887,38.4071],[14.93918,38.40713],[14.93916,38.40697],[14.93939,38.4072],[14.93953,38.40678],[14.93998,38.40693],[14.94017,38.40668],[14.93983,38.40658],[14.94082,38.40667],[14.94096,38.40634],[14.94049,38.40589],[14.94056,38.40534],[14.94146,38.40533],[14.94158,38.40463],[14.94138,38.40436],[14.93885,38.40403],[14.93775,38.4038],[14.93778,38.40361],[14.93668,38.40367],[14.93646,38.40349],[14.93672,38.4025],[14.93729,38.40235],[14.93788,38.40247],[14.93772,38.40256],[14.938,38.40283],[14.93898,38.40262],[14.93984,38.40274],[14.93907,38.4014],[14.93903,38.40046],[14.93981,38.4011],[14.94082,38.4014],[14.94167,38.40115],[14.94155,38.39993],[14.94202,38.39852],[14.94309,38.3973],[14.94366,38.3971],[14.94519,38.39426],[14.94724,38.39229],[14.94859,38.38952],[14.94903,38.38626],[14.94886,38.38585],[14.94919,38.38495],[14.9499,38.38417],[14.95365,38.38209],[14.9546,38.38194],[14.95602,38.38225],[14.95714,38.38184],[14.96007,38.38184],[14.96111,38.38153],[14.96278,38.38026],[14.96289,38.37989],[14.96343,38.37991],[14.96357,38.37962],[14.96393,38.37959],[14.96388,38.37933],[14.96419,38.37933],[14.96388,38.37922],[14.96403,38.37897],[14.96376,38.37855],[14.96457,38.37818],[14.96548,38.37823],[14.96585,38.37747],[14.9667,38.37729],[14.96821,38.37575],[14.97061,38.37469],[14.97283,38.37304],[14.97614,38.36927],[14.98319,38.36714],[14.9849,38.36692],[14.98723,38.36723],[14.99057,38.36668],[14.99227,38.36699],[14.99376,38.36831],[14.99408,38.36891],[14.99442,38.3688],[14.99403,38.36904],[14.99448,38.36952],[14.99723,38.37029]]]}},{"type":"Feature","properties":{"kind":"island","area_km2":12.7005},"geometry":{"type":"Polygon","coordinates":[[[15.21369,38.81049],[15.21272,38.80976],[15.21102,38.80778],[15.21053,38.80774],[15.20978,38.807],[15.20878,38.80667],[15.20757,38.80485],[15.20576,38.80317],[15.20087,38.80035],[15.19759,38.79792],[15.19469,38.79665],[15.1924,38.79644],[15.19238,38.79622],[15.19208,38.79618],[15.19003,38.79607],[15.18884,38.79434],[15.18915,38.79383],[15.18862,38.7924],[15.18787,38.79231],[15.18732,38.79069],[15.18769,38.79055],[15.18739,38.79001],[15.18788,38.78986],[15.18809,38.7895],[15.18799,38.78881],[15.18831,38.78842],[15.18859,38.78847],[15.18855,38.78819],[15.18808,38.7879],[15.18854,38.7878],[15.18848,38.78749],[15.18865,38.7877],[15.18897,38.78757],[15.18986,38.78633],[15.18973,38.78595],[15.18896,38.78544],[15.18938,38.78524],[15.18995,38.78577],[15.19085,38.78536],[15.19028,38.78512],[15.1909,38.7848],[15.19085,38.7851],[15.1911,38.78508],[15.19112,38.78481],[15.19147,38.7848],[15.19247,38.78349],[15.19226,38.78334],[15.1925,38.78322],[15.19265,38.78337],[15.19294,38.7828],[15.19341,38.78265],[15.19426,38.78179],[15.19536,38.78015],[15.19522,38.78005],[15.19555,38.78011],[15.1962,38.77977],[15.19629,38.77993],[15.19819,38.78005],[15.20042,38.77969],[15.20309,38.77816],[15.2057,38.77601],[15.20951,38.77388],[15.21063,38.77275],[15.21291,38.77194],[15.21462,38.77161],[15.21555,38.7717],[15.21699,38.77231],[15.21926,38.77462],[15.22227,38.77698],[15.22569,38.77684],[15.22629,38.77711],[15.22661,38.77692],[15.22675,38.77718],[15.22705,38.77708],[15.22685,38.77745],[15.22951,38.78234],[15.22966,38.78432],[15.22994,38.78482],[15.22981,38.78586],[15.23148,38.78915],[15.2326,38.79045],[15.23501,38.79216],[15.23696,38.795],[15.23915,38.79729],[15.23962,38.79772],[15.24002,38.7974],[15.24017,38.79759],[15.23973,38.79778],[15.24171,38.79956],[15.24237,38.80051],[15.24307,38.80313],[15.24238,38.80485],[15.24025,38.8057],[15.2397,38.80635],[15.23991,38.80663],[15.23956,38.80637],[15.23675,38.80649],[15.23642,38.80694],[15.23531,38.80726],[15.23521,38.80757],[15.23502,38.80748],[15.23435,38.80786],[15.23418,38.80824],[15.22871,38.8106],[15.22774,38.81038],[15.22605,38.81042],[15.22399,38.81093],[15.22221,38.81169],[15.22064,38.81198],[15.21929,38.81168],[15.21681,38.81164],[15.21369,38.81049]]]}},{"type":"Feature","properties":{"kind":"island","area_km2":9.2708},"geometry":{"type":"Polygon","coordinates":[[[14.56053,38.55798],[14.56424,38.5588],[14.56577,38.55862],[14.5658,38.55824],[14.56608,38.55825],[14.56592,38.55862],[14.56694,38.55891],[14.56749,38.55872],[14.56748,38.55895],[14.56808,38.559],[14.56919,38.55882],[14.57017,38.55831],[14.57063,38.55774],[14.57083,38.55784],[14.57182,38.55735],[14.57407,38.55758],[14.57426,38.55737],[14.57484,38.55775],[14.57664,38.55765],[14.58284,38.556],[14.5839,38.55486],[14.58392,38.55446],[14.58489,38.55402],[14.58571,38.55329],[14.58617,38.55359],[14.58671,38.55345],[14.58722,38.5538],[14.58763,38.55374],[14.58755,38.55395],[14.58872,38.55443],[14.58881,38.55468],[14.58931,38.55459],[14.58977,38.55491],[14.5914,38.55493],[14.59301,38.55564],[14.59342,38.55618],[14.59333,38.5569],[14.59378,38.55717],[14.59364,38.55776],[14.59385,38.55774],[14.59336,38.55821],[14.59354,38.55843],[14.59279,38.55869],[14.59297,38.55903],[14.59273,38.55896],[14.59265,38.55933],[14.59167,38.55979],[14.5903,38.5594],[14.58976,38.55953],[14.58842,38.55859],[14.58621,38.55886],[14.58328,38.55997],[14.58119,38.56139],[14.58114,38.56179],[14.5816,38.5621],[14.58091,38.56191],[14.57999,38.56342],[14.57975,38.5649],[14.5799,38.56607],[14.57955,38.56708],[14.58002,38.56944],[14.58106,38.57085],[14.58155,38.57227],[14.58072,38.575],[14.57951,38.5764],[14.57766,38.57955],[14.57627,38.58109],[14.57396,38.58185],[14.57162,38.5817],[14.56992,38.58186],[14.56745,38.58266],[14.56465,38.5839],[14.56206,38.58466],[14.55979,38.58461],[14.55595,38.58566],[14.55394,38.58587],[14.5513,38.5858],[14.54804,38.58533],[14.54762,38.58536],[14.54765,38.58566],[14.54724,38.58607],[14.54718,38.58586],[14.54567,38.58518],[14.54412,38.58578],[14.54449,38.58488],[14.54358,38.58482],[14.544,38.58437],[14.54384,38.58423],[14.54188,38.58332],[14.54106,38.58088],[14.53968,38.57892],[14.53946,38.57772],[14.54061,38.57582],[14.54083,38.57415],[14.54171,38.57237],[14.54064,38.57213],[14.54175,38.57191],[14.5418,38.57128],[14.54216,38.5712],[14.54188,38.57087],[14.54298,38.57088],[14.54357,38.57005],[14.54536,38.56923],[14.54587,38.56869],[14.54662,38.56704],[14.54742,38.56619],[14.55202,38.56315],[14.55509,38.55864],[14.55573,38.55834],[14.55573,38.55793],[14.55726,38.55809],[14.55909,38.55769],[14.56053,38.55798]]]}},{"type":"Feature","properties":{"kind":"island","area_km2":5.0459},"geometry":{"type":"Polygon","coordinates":[[[14.35072,38.53092],[14.35172,38.53072],[14.35578,38.53078],[14.35925,38.5318],[14.36039,38.53272],[14.3607,38.53366],[14.36094,38.53383],[14.36119,38.53366],[14.36131,38.53384],[14.36108,38.53386],[14.3611,38.53416],[14.36369,38.5386],[14.36453,38.54175],[14.36473,38.54353],[14.366,38.54572],[14.3663,38.55009],[14.36608,38.55081],[14.36461,38.55287],[14.36301,38.55387],[14.36128,38.5544],[14.35859,38.55449],[14.3532,38.55376],[14.34915,38.55384],[14.34658,38.55327],[14.34537,38.55272],[14.34392,38.55134],[14.34314,38.55119],[14.34335,38.55101],[14.34092,38.54897],[14.33992,38.54757],[14.33942,38.54614],[14.33904,38.54324],[14.33923,38.54114],[14.33987,38.53816],[14.34158,38.53448],[14.34254,38.53323],[14.34456,38.53196],[14.34844,38.53095],[14.35072,38.53092]]]}},{"type":"Feature","properties":{"kind":"island","area_km2":3.4281},"geometry":{"type":"Polygon","coordinates":[[[15.0628,38.62567],[15.06324,38.62543],[15.0631,38.62516],[15.06367,38.62519],[15.06352,38.6247],[15.06418,38.62467],[15.06451,38.62537],[15.06408,38.62546],[15.06408,38.62577],[15.0638,38.62573],[15.06375,38.62613],[15.06413,38.62666],[15.06441,38.62659],[15.06471,38.62684],[15.06465,38.62814],[15.06586,38.6287],[15.06708,38.62868],[15.06779,38.62821],[15.06772,38.62785],[15.06792,38.62776],[15.06865,38.62818],[15.06885,38.62916],[15.06961,38.62951],[15.07072,38.62942],[15.07197,38.62862],[15.07357,38.62911],[15.07413,38.63031],[15.07585,38.63189],[15.07649,38.63376],[15.07629,38.6338],[15.07697,38.63485],[15.07712,38.63563],[15.07856,38.63645],[15.07853,38.63673],[15.07772,38.63673],[15.07706,38.63735],[15.07701,38.6378],[15.07822,38.63794],[15.07817,38.63816],[15.07712,38.63789],[15.07696,38.63824],[15.07749,38.64088],[15.07692,38.64387],[15.07509,38.64548],[15.07244,38.64678],[15.0712,38.64679],[15.07,38.64737],[15.06891,38.64732],[15.06792,38.64647],[15.066,38.64597],[15.06483,38.64472],[15.06343,38.64369],[15.06229,38.64328],[15.06195,38.64346],[15.06183,38.64389],[15.06113,38.64426],[15.06018,38.64388],[15.05985,38.64308],[15.05893,38.6432],[15.05864,38.64289],[15.05887,38.64221],[15.05971,38.64138],[15.05934,38.64071],[15.05882,38.64064],[15.05716,38.63772],[15.05705,38.63625],[15.05659,38.63599],[15.05683,38.63587],[15.05697,38.63505],[15.05588,38.63304],[15.05537,38.6305],[15.05433,38.6295],[15.05487,38.62854],[15.05484,38.62753],[15.05525,38.62599],[15.05657,38.62496],[15.05829,38.62494],[15.05975,38.62546],[15.06063,38.6254],[15.06116,38.62571],[15.06149,38.62546],[15.06235,38.62579],[15.0628,38.62567]]]}},{"type":"Feature","properties":{"kind":"island","area_km2":0.2733},"geometry":{"type":"Polygon","coordinates":[[[15.11794,38.66095],[15.11811,38.66224],[15.11752,38.66259],[15.1179,38.663],[15.11811,38.66294],[15.1181,38.66321],[15.11831,38.66312],[15.11797,38.66336],[15.11822,38.66357],[15.1179,38.66407],[15.11805,38.66453],[15.11718,38.66423],[15.11689,38.66467],[15.11637,38.6646],[15.11646,38.66493],[15.11607,38.66485],[15.11543,38.66542],[15.1157,38.6656],[15.11545,38.66605],[15.11462,38.6656],[15.11334,38.66617],[15.11339,38.66554],[15.11298,38.66524],[15.1121,38.66553],[15.1121,38.66525],[15.11163,38.66525],[15.11185,38.66497],[15.11143,38.66431],[15.11093,38.66426],[15.11051,38.6639],[15.10987,38.66412],[15.10879,38.66372],[15.10956,38.66336],[15.11009,38.6634],[15.10995,38.66309],[15.10958,38.663],[15.11069,38.66259],[15.11078,38.66239],[15.11015,38.66199],[15.11054,38.66191],[15.11041,38.66166],[15.11141,38.6618],[15.11163,38.66133],[15.11186,38.66134],[15.11203,38.66163],[15.11244,38.66157],[15.11367,38.66201],[15.11496,38.66141],[15.11492,38.66159],[15.11577,38.66122],[15.11667,38.66123],[15.11656,38.66089],[15.11748,38.66121],[15.11774,38.66122],[15.11768,38.66087],[15.11794,38.66095]]]}},{"type":"Feature","properties":{"kind":"island","area_km2":0.0286},"geometry":{"type":"Polygon","coordinates":[[[15.11446,38.6386],[15.11564,38.63898],[15.11519,38.63921],[15.11492,38.63987],[15.11451,38.63991],[15.11402,38.64035],[15.11298,38.63976],[15.11248,38.63918],[15.11396,38.63875],[15.11416,38.6385],[15.11446,38.6386]]]}},{"type":"Feature","properties":{"kind":"island","area_km2":0.0195},"geometry":{"type":"Polygon","coordinates":[[[15.09768,38.63867],[15.09824,38.63878],[15.09803,38.63937],[15.09819,38.64007],[15.09767,38.64034],[15.09742,38.64018],[15.09678,38.64027],[15.097,38.63945],[15.09682,38.63911],[15.09638,38.6392],[15.09684,38.63868],[15.09768,38.63867]]]}},{"type":"Feature","properties":{"kind":"island","area_km2":0.0079},"geometry":{"type":"Polygon","coordinates":[[[15.11132,38.63753],[15.1112,38.63785],[15.11019,38.63849],[15.11007,38.63807],[15.11073,38.63731],[15.11112,38.63713],[15.11132,38.63753]]]}},{"type":"Feature","properties":{"kind":"island","area_km2":0.0051},"geometry":{"type":"Polygon","coordinates":[[[14.80136,38.57952],[14.80049,38.57982],[14.80023,38.57934],[14.80073,38.5791],[14.8015,38.57932],[14.80136,38.57952]]]}},{"type":"Feature","properties":{"kind":"island","area_km2":0.0039},"geometry":{"type":"Polygon","coordinates":[[[15.1084,38.66436],[15.10889,38.66437],[15.10851,38.66494],[15.10763,38.665],[15.1084,38.66436]]]}},{"type":"Feature","properties":{"kind":"island","area_km2":0.0034},"geometry":{"type":"Polygon","coordinates":[[[15.06195,38.62417],[15.06224,38.62392],[15.06329,38.62438],[15.06336,38.62425],[15.06382,38.62463],[15.06195,38.62417]]]}},{"type":"Feature","properties":{"kind":"island","area_km2":0.0033},"geometry":{"type":"Polygon","coordinates":[[[15.25127,38.81759],[15.25194,38.81702],[15.25268,38.8174],[15.25127,38.81759]]]}},{"type":"Feature","properties":{"kind":"island","area_km2":0.0032},"geometry":{"type":"Polygon","coordinates":[[[14.52658,38.5824],[14.52693,38.58199],[14.52745,38.582],[14.52768,38.58229],[14.52712,38.58253],[14.52683,38.58228],[14.52658,38.5824]]]}},{"type":"Feature","properties":{"kind":"island","area_km2":0.0026},"geometry":{"type":"Polygon","coordinates":[[[14.89896,38.47984],[14.89888,38.47918],[14.89941,38.47922],[14.89941,38.47964],[14.89896,38.47984]]]}},{"type":"Feature","properties":{"kind":"island","area_km2":0.0026},"geometry":{"type":"Polygon","coordinates":[[[15.06464,38.6466],[15.06421,38.64719],[15.0636,38.64719],[15.06414,38.64671],[15.06464,38.6466]]]}},{"type":"Feature","properties":{"kind":"island","area_km2":0.002},"geometry":{"type":"Polygon","coordinates":[[[14.89634,38.47496],[14.89608,38.47517],[14.89555,38.47495],[14.89612,38.47465],[14.89634,38.47496]]]}},{"type":"Feature","properties":{"kind":"island","area_km2":0.0016},"geometry":{"type":"Polygon","coordinates":[[[14.99002,38.16115],[14.98979,38.16125],[14.98941,38.16097],[14.98999,38.16077],[14.99002,38.16115]]]}},{"type":"Feature","properties":{"kind":"island","area_km2":0.0015},"geometry":{"type":"Polygon","coordinates":[[[14.78259,38.15413],[14.78331,38.15424],[14.783,38.15448],[14.7825,38.1543],[14.78259,38.15413]]]}},{"type":"Feature","properties":{"kind":"island","area_km2":0.0014},"geometry":{"type":"Polygon","coordinates":[[[14.93885,38.39967],[14.93875,38.40007],[14.93812,38.39971],[14.93885,38.39967]]]}},{"type":"Feature","properties":{"kind":"island","area_km2":0.0013},"geometry":{"type":"Polygon","coordinates":[[[14.95413,38.439],[14.95392,38.43867],[14.95428,38.43852],[14.95445,38.43882],[14.95413,38.439]]]}},{"type":"Feature","properties":{"kind":"island","area_km2":0.0009},"geometry":{"type":"Polygon","coordinates":[[[14.94281,38.43969],[14.9431,38.43955],[14.94341,38.43973],[14.94322,38.43988],[14.94281,38.43969]]]}},{"type":"Feature","properties":{"kind":"island","area_km2":0.0009},"geometry":{"type":"Polygon","coordinates":[[[14.82538,38.16521],[14.82547,38.16498],[14.82588,38.165],[14.8259,38.16515],[14.82538,38.16521]]]}},{"type":"Feature","properties":{"kind":"island","area_km2":0.0009},"geometry":{"type":"Polygon","coordinates":[[[15.30204,37.85952],[15.30209,37.85923],[15.30248,37.85952],[15.30221,37.85967],[15.30204,37.85952]]]}},{"type":"Feature","properties":{"kind":"island","area_km2":0.0008},"geometry":{"type":"Polygon","coordinates":[[[14.95095,38.42021],[14.95103,38.42001],[14.95137,38.42015],[14.95116,38.42036],[14.95095,38.42021]]]}},{"type":"Feature","properties":{"kind":"island","area_km2":0.0006},"geometry":{"type":"Polygon","coordinates":[[[14.89916,38.49276],[14.89948,38.49255],[14.89949,38.4929],[14.89916,38.49276]]]}},{"type":"Feature","properties":{"kind":"island","area_km2":0.0006},"geometry":{"type":"Polygon","coordinates":[[[14.94246,38.44465],[14.94264,38.44449],[14.94281,38.44467],[14.94269,38.44482],[14.94246,38.44465]]]}},{"type":"Feature","properties":{"kind":"island","area_km2":0.0006},"geometry":{"type":"Polygon","coordinates":[[[14.5211,38.58243],[14.52152,38.58219],[14.5215,38.58251],[14.5211,38.58243]]]}},{"type":"Feature","properties":{"kind":"island","area_km2":0.0006},"geometry":{"type":"Polygon","coordinates":[[[14.546,38.58659],[14.54629,38.58662],[14.54608,38.58701],[14.546,38.58659]]]}},{"type":"Feature","properties":{"kind":"island","area_km2":0.0006},"geometry":{"type":"Polygon","coordinates":[[[15.11463,38.66587],[15.11483,38.66616],[15.11451,38.66628],[15.11463,38.66587]]]}},{"type":"Feature","properties":{"kind":"island","area_km2":0.0005},"geometry":{"type":"Polygon","coordinates":[[[14.74768,38.16556],[14.74769,38.16553],[14.74777,38.16553],[14.74783,38.1656],[14.74782,38.16565],[14.74786,38.16566],[14.74791,38.16565],[14.74798,38.16575],[14.74805,38.16581],[14.74809,38.16587],[14.74809,38.16595],[14.74805,38.16595],[14.74781,38.16573],[14.74768,38.16556]]]}},{"type":"Feature","properties":{"kind":"island","area_km2":0.0005},"geometry":{"type":"Polygon","coordinates":[[[14.89848,38.47988],[14.89874,38.47965],[14.89874,38.48004],[14.89848,38.47988]]]}},{"type":"Feature","properties":{"kind":"island","area_km2":0.0005},"geometry":{"type":"Polygon","coordinates":[[[14.94133,38.43882],[14.94168,38.4387],[14.94201,38.43891],[14.94133,38.43882]]]}},{"type":"Feature","properties":{"kind":"island","area_km2":0.0004},"geometry":{"type":"Polygon","coordinates":[[[14.78313,38.15399],[14.78286,38.15411],[14.78271,38.15389],[14.78313,38.15399]]]}},{"type":"Feature","properties":{"kind":"island","area_km2":0.0004},"geometry":{"type":"Polygon","coordinates":[[[15.18865,38.7954],[15.18854,38.7953],[15.18852,38.7952],[15.18853,38.79515],[15.18862,38.79513],[15.18868,38.79517],[15.18869,38.79523],[15.1887,38.79527],[15.18878,38.79534],[15.18877,38.79539],[15.18871,38.79538],[15.18865,38.7954]]]}},{"type":"Feature","properties":{"kind":"island","area_km2":0.0004},"geometry":{"type":"Polygon","coordinates":[[[15.2981,37.8649],[15.29838,37.86501],[15.29818,37.86521],[15.2981,37.8649]]]}},{"type":"Feature","properties":{"kind":"island","area_km2":0.0003},"geometry":{"type":"Polygon","coordinates":[[[15.23548,38.25688],[15.23555,38.25683],[15.23565,38.25683],[15.23572,38.25685],[15.23572,38.25697],[15.23565,38.25703],[15.23556,38.25701],[15.23548,38.25688]]]}},{"type":"Feature","properties":{"kind":"island","area_km2":0.0003},"geometry":{"type":"Polygon","coordinates":[[[14.95114,38.52181],[14.95126,38.52164],[14.95143,38.52193],[14.95114,38.52181]]]}},{"type":"Feature","properties":{"kind":"island","area_km2":0.0003},"geometry":{"type":"Polygon","coordinates":[[[14.90164,38.4961],[14.90171,38.49599],[14.9018,38.49598],[14.90188,38.49605],[14.90184,38.49616],[14.90174,38.49617],[14.90164,38.4961]]]}},{"type":"Feature","properties":{"kind":"island","area_km2":0.0003},"geometry":{"type":"Polygon","coordinates":[[[14.89708,38.48598],[14.89728,38.48591],[14.89735,38.48593],[14.89738,38.48608],[14.89725,38.48604],[14.89708,38.48598]]]}},{"type":"Feature","properties":{"kind":"island","area_km2":0.0003},"geometry":{"type":"Polygon","coordinates":[[[14.90004,38.49223],[14.90009,38.49217],[14.90025,38.49216],[14.9003,38.49218],[14.90036,38.49219],[14.90034,38.49226],[14.90027,38.49228],[14.90019,38.49227],[14.90013,38.49228],[14.90013,38.49224],[14.90011,38.49223],[14.90004,38.49223]]]}},{"type":"Feature","properties":{"kind":"island","area_km2":0.0003},"geometry":{"type":"Polygon","coordinates":[[[15.19155,38.79641],[15.19169,38.79636],[15.19189,38.79635],[15.19207,38.79633],[15.19207,38.7964],[15.192,38.79641],[15.19186,38.79641],[15.19172,38.79643],[15.19155,38.79641]]]}},{"type":"Feature","properties":{"kind":"island","area_km2":0.0003},"geometry":{"type":"Polygon","coordinates":[[[15.06134,38.6251],[15.06138,38.62505],[15.06143,38.62506],[15.06146,38.62512],[15.06152,38.62513],[15.06163,38.62519],[15.0617,38.62527],[15.0617,38.62531],[15.06162,38.62527],[15.06155,38.62523],[15.06148,38.6252],[15.06143,38.62517],[15.06134,38.6251]]]}},{"type":"Feature","properties":{"kind":"island","area_km2":0.0003},"geometry":{"type":"Polygon","coordinates":[[[15.2995,37.84993],[15.2995,37.8499],[15.29952,37.84987],[15.29955,37.84987],[15.2996,37.84988],[15.29962,37.84989],[15.29965,37.84991],[15.29968,37.84992],[15.29971,37.84993],[15.29972,37.84995],[15.29971,37.84998],[15.29968,37.85],[15.29964,37.85003],[15.2996,37.85004],[15.29958,37.85004],[15.29954,37.85002],[15.29951,37.85],[15.29953,37.84998],[15.2995,37.84996],[15.29951,37.84995],[15.2995,37.84993]]]}},{"type":"Feature","properties":{"kind":"island","area_km2":0.0003},"geometry":{"type":"Polygon","coordinates":[[[15.10686,38.63489],[15.107,38.63493],[15.10703,38.63497],[15.10702,38.63502],[15.10706,38.63507],[15.10698,38.6351],[15.10692,38.63506],[15.1069,38.63506],[15.10685,38.63504],[15.10684,38.63503],[15.10683,38.63501],[15.10683,38.63498],[15.10686,38.63495],[15.10686,38.63489]]]}},{"type":"Feature","properties":{"kind":"island","area_km2":0.0002},"geometry":{"type":"Polygon","coordinates":[[[14.16383,38.02137],[14.16386,38.02125],[14.16397,38.02122],[14.16403,38.02125],[14.16399,38.0213],[14.16391,38.02139],[14.16387,38.02141],[14.16383,38.02137]]]}},{"type":"Feature","properties":{"kind":"island","area_km2":0.0002},"geometry":{"type":"Polygon","coordinates":[[[14.24335,38.01102],[14.24338,38.01097],[14.2434,38.01095],[14.24337,38.01093],[14.24338,38.01085],[14.24342,38.01083],[14.24346,38.0109],[14.24346,38.01096],[14.24345,38.01099],[14.24345,38.01103],[14.24341,38.01108],[14.2434,38.01112],[14.24337,38.01107],[14.24335,38.01102]]]}},{"type":"Feature","properties":{"kind":"island","area_km2":0.0002},"geometry":{"type":"Polygon","coordinates":[[[14.25019,38.01182],[14.25027,38.01168],[14.25037,38.0117],[14.25035,38.01175],[14.25041,38.01176],[14.2504,38.0118],[14.25033,38.01186],[14.25028,38.01183],[14.2503,38.01176],[14.25019,38.01182]]]}},{"type":"Feature","properties":{"kind":"island","area_km2":0.0002},"geometry":{"type":"Polygon","coordinates":[[[14.51089,38.04181],[14.51093,38.04177],[14.51098,38.04174],[14.51103,38.04174],[14.5111,38.04175],[14.51115,38.04178],[14.51114,38.04182],[14.51109,38.04183],[14.51105,38.0418],[14.51104,38.04182],[14.51102,38.04187],[14.51098,38.04189],[14.51092,38.04185],[14.51089,38.04181]]]}},{"type":"Feature","properties":{"kind":"island","area_km2":0.0002},"geometry":{"type":"Polygon","coordinates":[[[14.75581,38.16038],[14.75582,38.16033],[14.75586,38.16029],[14.75592,38.16028],[14.75597,38.16034],[14.756,38.16043],[14.75597,38.16046],[14.75585,38.16042],[14.75581,38.16038]]]}},{"type":"Feature","properties":{"kind":"island","area_km2":0.0002},"geometry":{"type":"Polygon","coordinates":[[[14.54344,38.56965],[14.54353,38.56964],[14.5436,38.56967],[14.54364,38.5697],[14.54365,38.56975],[14.54363,38.5698],[14.54356,38.56976],[14.5435,38.56971],[14.54344,38.56965]]]}},{"type":"Feature","properties":{"kind":"island","area_km2":0.0002},"geometry":{"type":"Polygon","coordinates":[[[14.53986,38.57378],[14.54002,38.57371],[14.5401,38.57398],[14.53986,38.57378]]]}},{"type":"Feature","properties":{"kind":"island","area_km2":0.0002},"geometry":{"type":"Polygon","coordinates":[[[14.97391,38.40912],[14.97396,38.40904],[14.97405,38.40905],[14.97409,38.40909],[14.97409,38.40916],[14.97403,38.40919],[14.97395,38.40917],[14.97391,38.40912]]]}},{"type":"Feature","properties":{"kind":"island","area_km2":0.0002},"geometry":{"type":"Polygon","coordinates":[[[15.18748,38.7893],[15.18752,38.78921],[15.1876,38.78923],[15.18767,38.78923],[15.18771,38.78927],[15.18765,38.78933],[15.18755,38.78933],[15.18748,38.7893]]]}},{"type":"Feature","properties":{"kind":"island","area_km2":0.0002},"geometry":{"type":"Polygon","coordinates":[[[15.18713,38.7908],[15.18708,38.79074],[15.18711,38.79065],[15.18712,38.79057],[15.18721,38.79053],[15.18726,38.79055],[15.18724,38.7906],[15.18719,38.79066],[15.18718,38.79073],[15.18717,38.7908],[15.18713,38.7908]]]}},{"type":"Feature","properties":{"kind":"island","area_km2":0.0002},"geometry":{"type":"Polygon","coordinates":[[[15.18714,38.79116],[15.18727,38.79112],[15.18732,38.79117],[15.18732,38.79122],[15.18741,38.79126],[15.18741,38.7913],[15.18733,38.79129],[15.18729,38.79127],[15.18724,38.79125],[15.18717,38.79119],[15.18714,38.79116]]]}},{"type":"Feature","properties":{"kind":"island","area_km2":0.0002},"geometry":{"type":"Polygon","coordinates":[[[15.18842,38.79502],[15.1884,38.79496],[15.1884,38.79495],[15.1885,38.79496],[15.1886,38.79491],[15.18864,38.79494],[15.18862,38.79501],[15.18861,38.79506],[15.18857,38.79508],[15.18852,38.79507],[15.18842,38.79502]]]}},{"type":"Feature","properties":{"kind":"island","area_km2":0.0002},"geometry":{"type":"Polygon","coordinates":[[[14.99217,38.16087],[14.99221,38.16068],[14.99235,38.16099],[14.99217,38.16087]]]}},{"type":"Feature","properties":{"kind":"island","area_km2":0.0002},"geometry":{"type":"Polygon","coordinates":[[[14.52672,38.58171],[14.52663,38.58164],[14.52662,38.58159],[14.52664,38.58156],[14.52662,38.58153],[14.52666,38.5815],[14.52671,38.58152],[14.52673,38.58155],[14.52679,38.58157],[14.52682,38.58162],[14.52675,38.58159],[14.52672,38.58161],[14.52672,38.58165],[14.52675,38.58168],[14.52672,38.58171]]]}},{"type":"Feature","properties":{"kind":"island","area_km2":0.0002},"geometry":{"type":"Polygon","coordinates":[[[14.33861,38.54634],[14.33859,38.54632],[14.33879,38.54627],[14.33895,38.54623],[14.3391,38.54623],[14.33897,38.54628],[14.33878,38.54631],[14.33861,38.54634]]]}},{"type":"Feature","properties":{"kind":"island","area_km2":0.0002},"geometry":{"type":"Polygon","coordinates":[[[14.54385,38.5849],[14.54375,38.58499],[14.5437,38.585],[14.54366,38.58502],[14.5436,38.58503],[14.54357,38.58507],[14.54351,38.58508],[14.54354,38.58502],[14.54361,38.585],[14.54364,38.58496],[14.54363,38.58493],[14.54372,38.58493],[14.54378,38.5849],[14.54385,38.5849]]]}},{"type":"Feature","properties":{"kind":"island","area_km2":0.0002},"geometry":{"type":"Polygon","coordinates":[[[14.94951,38.42084],[14.94953,38.42078],[14.94959,38.42078],[14.94967,38.42082],[14.94979,38.42085],[14.94976,38.42092],[14.94967,38.42091],[14.94958,38.42088],[14.94951,38.42084]]]}},{"type":"Feature","properties":{"kind":"island","area_km2":0.0002},"geometry":{"type":"Polygon","coordinates":[[[15.06075,38.64443],[15.06073,38.64435],[15.06079,38.64433],[15.06087,38.64437],[15.06097,38.64434],[15.06103,38.64442],[15.06084,38.64446],[15.06075,38.64443]]]}},{"type":"Feature","properties":{"kind":"island","area_km2":0.0002},"geometry":{"type":"Polygon","coordinates":[[[15.30129,37.85056],[15.30131,37.85051],[15.30129,37.8505],[15.3013,37.85046],[15.30135,37.85046],[15.30142,37.85043],[15.30144,37.85046],[15.30142,37.85048],[15.30144,37.85051],[15.30142,37.85055],[15.3014,37.85057],[15.30138,37.85059],[15.30132,37.85059],[15.30129,37.85056]]]}},{"type":"Feature","properties":{"kind":"island","area_km2":0.0002},"geometry":{"type":"Polygon","coordinates":[[[15.34671,37.9171],[15.34672,37.91709],[15.34668,37.91705],[15.3467,37.91703],[15.34675,37.91705],[15.34681,37.91707],[15.34681,37.91708],[15.34686,37.91711],[15.34685,37.91713],[15.34683,37.91715],[15.34678,37.91716],[15.34676,37.91719],[15.34672,37.91717],[15.3467,37.91715],[15.34668,37.91712],[15.34671,37.9171]]]}},{"type":"Feature","properties":{"kind":"island","area_km2":0.0002},"geometry":{"type":"Polygon","coordinates":[[[15.10668,38.63479],[15.10677,38.63481],[15.1068,38.63485],[15.10679,38.6349],[15.10676,38.6349],[15.10671,38.63491],[15.10668,38.63494],[15.10667,38.63494],[15.10662,38.63492],[15.10661,38.63491],[15.1066,38.63489],[15.1066,38.63486],[15.10662,38.63483],[15.10668,38.63479]]]}},{"type":"Feature","properties":{"kind":"island","area_km2":0.0002},"geometry":{"type":"Polygon","coordinates":[[[15.10671,38.6346],[15.10671,38.63468],[15.10678,38.63467],[15.10676,38.63474],[15.1067,38.63472],[15.10666,38.63472],[15.10662,38.63473],[15.10657,38.63472],[15.10651,38.63473],[15.10651,38.63471],[15.10654,38.63468],[15.10656,38.63467],[15.10663,38.63467],[15.10671,38.6346]]]}},{"type":"Feature","properties":{"kind":"island","area_km2":0.0002},"geometry":{"type":"Polygon","coordinates":[[[15.10679,38.63544],[15.10682,38.63548],[15.10663,38.63558],[15.10655,38.63557],[15.10653,38.6356],[15.10649,38.63562],[15.10645,38.6356],[15.10643,38.63558],[15.10643,38.63556],[15.10646,38.63554],[15.10648,38.63552],[15.10653,38.63552],[15.10657,38.63552],[15.10664,38.6355],[15.10679,38.63544]]]}},{"type":"Feature","properties":{"kind":"island","area_km2":0.0002},"geometry":{"type":"Polygon","coordinates":[[[15.10665,38.63514],[15.10683,38.63523],[15.10659,38.6353],[15.10665,38.63514]]]}},{"type":"Feature","properties":{"kind":"island","area_km2":0.0002},"geometry":{"type":"Polygon","coordinates":[[[14.95937,38.44382],[14.95935,38.4438],[14.95935,38.44377],[14.95935,38.44374],[14.95934,38.44371],[14.95936,38.44369],[14.95939,38.44369],[14.95941,38.44371],[14.95944,38.4437],[14.95948,38.4437],[14.95952,38.44371],[14.95953,38.44375],[14.95949,38.44378],[14.95944,38.44383],[14.95942,38.44383],[14.9594,38.44383],[14.95937,38.44382]]]}},{"type":"Feature","properties":{"kind":"island","area_km2":0.0001},"geometry":{"type":"Polygon","coordinates":[[[14.21264,38.01445],[14.21268,38.01438],[14.21275,38.01435],[14.2128,38.01438],[14.21278,38.01446],[14.21271,38.01448],[14.21264,38.01445]]]}},{"type":"Feature","properties":{"kind":"island","area_km2":0.0001},"geometry":{"type":"Polygon","coordinates":[[[14.25034,38.01161],[14.25035,38.01157],[14.25045,38.01151],[14.25049,38.01154],[14.25049,38.0116],[14.25045,38.01166],[14.25034,38.01161]]]}},{"type":"Feature","properties":{"kind":"island","area_km2":0.0001},"geometry":{"type":"Polygon","coordinates":[[[14.75545,38.16154],[14.75551,38.1615],[14.75557,38.16154],[14.75556,38.16158],[14.7555,38.16159],[14.75545,38.16154]]]}},{"type":"Feature","properties":{"kind":"island","area_km2":0.0001},"geometry":{"type":"Polygon","coordinates":[[[14.75826,38.15943],[14.75828,38.15937],[14.75837,38.15939],[14.75835,38.15942],[14.75835,38.15947],[14.75833,38.15947],[14.75826,38.15943]]]}},{"type":"Feature","properties":{"kind":"island","area_km2":0.0001},"geometry":{"type":"Polygon","coordinates":[[[14.8574,38.5344],[14.85744,38.53439],[14.85745,38.53436],[14.85743,38.53434],[14.8575,38.53434],[14.85754,38.53437],[14.85758,38.53441],[14.85758,38.53444],[14.85753,38.53443],[14.85747,38.53441],[14.85742,38.53442],[14.8574,38.5344]]]}},{"type":"Feature","properties":{"kind":"island","area_km2":0.0001},"geometry":{"type":"Polygon","coordinates":[[[15.09973,38.64214],[15.09972,38.64212],[15.09975,38.64209],[15.09977,38.64208],[15.09986,38.64209],[15.09989,38.6421],[15.09992,38.64209],[15.09994,38.6421],[15.09992,38.64213],[15.09994,38.64216],[15.09989,38.64216],[15.09983,38.64214],[15.09978,38.64213],[15.09973,38.64214]]]}},{"type":"Feature","properties":{"kind":"island","area_km2":0.0001},"geometry":{"type":"Polygon","coordinates":[[[15.44133,38.01906],[15.44133,38.01905],[15.44134,38.01902],[15.44135,38.01901],[15.44139,38.019],[15.44143,38.01901],[15.44147,38.01901],[15.4415,38.01901],[15.44149,38.01902],[15.44148,38.01904],[15.44147,38.01905],[15.44145,38.01907],[15.44141,38.01908],[15.44135,38.01907],[15.44133,38.01906]]]}},{"type":"Feature","properties":{"kind":"island","area_km2":0.0001},"geometry":{"type":"Polygon","coordinates":[[[14.93978,38.44327],[14.93982,38.44326],[14.93984,38.44328],[14.93993,38.44331],[14.93996,38.44335],[14.93992,38.44337],[14.93986,38.44337],[14.93981,38.44337],[14.93979,38.44335],[14.93976,38.44331],[14.93977,38.44329],[14.93978,38.44327]]]}},{"type":"Feature","properties":{"kind":"island","area_km2":0.0001},"geometry":{"type":"Polygon","coordinates":[[[14.94013,38.44352],[14.94016,38.44353],[14.94021,38.44356],[14.94019,38.44357],[14.94019,38.4436],[14.94014,38.44362],[14.94011,38.4436],[14.94006,38.44359],[14.94006,38.44357],[14.94009,38.44356],[14.94009,38.44354],[14.94013,38.44352]]]}},{"type":"Feature","properties":{"kind":"island","area_km2":0.0001},"geometry":{"type":"Polygon","coordinates":[[[15.09605,38.63936],[15.09607,38.63933],[15.09606,38.63933],[15.09608,38.63929],[15.09617,38.63927],[15.09613,38.63934],[15.0961,38.63935],[15.09611,38.63937],[15.09607,38.63939],[15.09607,38.63937],[15.09605,38.63936]]]}},{"type":"Feature","properties":{"kind":"island","area_km2":0.0001},"geometry":{"type":"Polygon","coordinates":[[[15.09609,38.63925],[15.09613,38.63919],[15.09615,38.6392],[15.09625,38.63917],[15.09618,38.63924],[15.09613,38.63924],[15.0961,38.63927],[15.09609,38.63925]]]}},{"type":"Feature","properties":{"kind":"island","area_km2":0.0001},"geometry":{"type":"Polygon","coordinates":[[[14.52545,38.58126],[14.52539,38.58131],[14.52534,38.58133],[14.52536,38.58127],[14.52537,38.58124],[14.52542,38.58124],[14.52547,38.58123],[14.52545,38.58126]]]}},{"type":"Feature","properties":{"kind":"island","area_km2":0.0001},"geometry":{"type":"Polygon","coordinates":[[[14.539,38.57868],[14.53891,38.57868],[14.5389,38.57862],[14.53895,38.5786],[14.53904,38.57858],[14.5391,38.57863],[14.53904,38.57864],[14.53904,38.57868],[14.539,38.57868]]]}},{"type":"Feature","properties":{"kind":"island","area_km2":0.0001},"geometry":{"type":"Polygon","coordinates":[[[14.5256,38.58167],[14.52556,38.58169],[14.52554,38.58167],[14.52555,38.58165],[14.52554,38.58162],[14.52559,38.5816],[14.52565,38.58161],[14.52566,38.58166],[14.52563,38.58169],[14.5256,38.58167]]]}},{"type":"Feature","properties":{"kind":"island","area_km2":0.0001},"geometry":{"type":"Polygon","coordinates":[[[14.52687,38.5815],[14.52681,38.58151],[14.52675,38.5815],[14.52674,38.58146],[14.52669,38.58144],[14.52672,38.58142],[14.52677,38.58143],[14.52679,38.58145],[14.52684,38.58146],[14.52687,38.5815]]]}},{"type":"Feature","properties":{"kind":"island","area_km2":0.0001},"geometry":{"type":"Polygon","coordinates":[[[14.54373,38.58542],[14.54368,38.58545],[14.54364,38.5855],[14.5436,38.58547],[14.54363,38.58544],[14.54364,38.5854],[14.54363,38.58537],[14.54364,38.58533],[14.5437,38.5853],[14.54372,38.58538],[14.54373,38.58542]]]}},{"type":"Feature","properties":{"kind":"island","area_km2":0.0001},"geometry":{"type":"Polygon","coordinates":[[[14.53971,38.57419],[14.53975,38.57418],[14.53978,38.5742],[14.53982,38.57421],[14.53985,38.57423],[14.53981,38.57425],[14.53977,38.57425],[14.53974,38.57423],[14.5397,38.57422],[14.53969,38.5742],[14.53971,38.57419]]]}},{"type":"Feature","properties":{"kind":"island","area_km2":0.0001},"geometry":{"type":"Polygon","coordinates":[[[15.09648,38.64036],[15.09651,38.64034],[15.09649,38.64033],[15.09652,38.64029],[15.09668,38.64024],[15.09668,38.64028],[15.09656,38.64034],[15.09653,38.64035],[15.09655,38.64037],[15.0965,38.6404],[15.09651,38.64037],[15.09648,38.64036]]]}},{"type":"Feature","properties":{"kind":"island","area_km2":0.0001},"geometry":{"type":"Polygon","coordinates":[[[15.301,37.85064],[15.30108,37.85061],[15.3011,37.85061],[15.30112,37.85063],[15.30113,37.85064],[15.30111,37.85066],[15.30109,37.85066],[15.30108,37.85068],[15.30102,37.85069],[15.301,37.85066],[15.301,37.85064]]]}},{"type":"Feature","properties":{"kind":"island","area_km2":0.0001},"geometry":{"type":"Polygon","coordinates":[[[15.29969,37.85006],[15.29971,37.85004],[15.29975,37.85003],[15.29977,37.85004],[15.2998,37.85007],[15.29981,37.85011],[15.29979,37.85013],[15.29977,37.8501],[15.29974,37.8501],[15.29973,37.85008],[15.29969,37.85008],[15.29969,37.85006]]]}},{"type":"Feature","properties":{"kind":"island","area_km2":0.0001},"geometry":{"type":"Polygon","coordinates":[[[15.30191,37.85932],[15.30193,37.85932],[15.30195,37.85934],[15.30196,37.85935],[15.30196,37.85937],[15.30197,37.85938],[15.30195,37.85939],[15.30193,37.8594],[15.30192,37.85941],[15.30189,37.85941],[15.30187,37.85942],[15.30185,37.85943],[15.30183,37.85942],[15.30181,37.85941],[15.3018,37.8594],[15.3018,37.85939],[15.3018,37.85939],[15.30181,37.85937],[15.30183,37.85936],[15.30185,37.85935],[15.30188,37.85934],[15.30191,37.85932]]]}},{"type":"Feature","properties":{"kind":"island","area_km2":0.0001},"geometry":{"type":"Polygon","coordinates":[[[15.30272,37.85248],[15.30281,37.85247],[15.30289,37.85248],[15.30285,37.85253],[15.30277,37.85255],[15.3027,37.85252],[15.30272,37.85248]]]}},{"type":"Feature","properties":{"kind":"island","area_km2":0.0001},"geometry":{"type":"Polygon","coordinates":[[[15.30309,37.85287],[15.30312,37.85282],[15.30319,37.85278],[15.30326,37.85272],[15.30328,37.85276],[15.30324,37.8528],[15.30313,37.85287],[15.30309,37.85287]]]}},{"type":"Feature","properties":{"kind":"island","area_km2":0.0001},"geometry":{"type":"Polygon","coordinates":[[[15.29953,37.85851],[15.29959,37.85851],[15.29965,37.85856],[15.29966,37.85862],[15.29959,37.85862],[15.29953,37.85857],[15.29953,37.85851]]]}},{"type":"Feature","properties":{"kind":"island","area_km2":0.0001},"geometry":{"type":"Polygon","coordinates":[[[15.29691,37.86063],[15.29699,37.86061],[15.29708,37.86064],[15.29706,37.86069],[15.29698,37.86071],[15.29692,37.86067],[15.29693,37.86065],[15.29691,37.86063]]]}},{"type":"Feature","properties":{"kind":"island","area_km2":0.0001},"geometry":{"type":"Polygon","coordinates":[[[15.30177,37.85507],[15.30178,37.85504],[15.30182,37.85501],[15.30187,37.85503],[15.30191,37.85506],[15.3019,37.85508],[15.30187,37.8551],[15.30183,37.85511],[15.30179,37.8551],[15.30177,37.85507]]]}},{"type":"Feature","properties":{"kind":"island","area_km2":0.0001},"geometry":{"type":"Polygon","coordinates":[[[15.30454,37.8553],[15.3045,37.85526],[15.30455,37.85524],[15.30459,37.85526],[15.30463,37.85524],[15.30465,37.85526],[15.30468,37.8553],[15.30464,37.85535],[15.30456,37.85535],[15.30455,37.85533],[15.30454,37.8553]]]}},{"type":"Feature","properties":{"kind":"island","area_km2":0.0001},"geometry":{"type":"Polygon","coordinates":[[[15.2989,37.86718],[15.29888,37.86714],[15.29889,37.86711],[15.29895,37.86711],[15.29897,37.86713],[15.29898,37.8672],[15.29892,37.8672],[15.2989,37.86718]]]}},{"type":"Feature","properties":{"kind":"island","area_km2":0.0001},"geometry":{"type":"Polygon","coordinates":[[[15.29857,37.8666],[15.29857,37.86656],[15.2986,37.86652],[15.29865,37.86652],[15.29864,37.8666],[15.29857,37.8666]]]}},{"type":"Feature","properties":{"kind":"island","area_km2":0.0001},"geometry":{"type":"Polygon","coordinates":[[[15.29895,37.8669],[15.29891,37.86683],[15.29898,37.86682],[15.299,37.8668],[15.29904,37.86683],[15.29904,37.86686],[15.29901,37.86686],[15.299,37.86689],[15.29898,37.86689],[15.29895,37.8669]]]}},{"type":"Feature","properties":{"kind":"island","area_km2":0.0001},"geometry":{"type":"Polygon","coordinates":[[[15.29714,37.86057],[15.29728,37.86055],[15.29725,37.86059],[15.29724,37.86063],[15.29716,37.86061],[15.29714,37.86057]]]}},{"type":"Feature","properties":{"kind":"island","area_km2":0.0001},"geometry":{"type":"Polygon","coordinates":[[[14.94589,38.44112],[14.94587,38.44111],[14.94587,38.44108],[14.94585,38.44107],[14.94583,38.44105],[14.94584,38.44103],[14.9459,38.44104],[14.94593,38.44105],[14.94595,38.44106],[14.94596,38.44108],[14.94595,38.44111],[14.94593,38.44113],[14.94591,38.44112],[14.94589,38.44112]]]}},{"type":"Feature","properties":{"kind":"island","area_km2":0.0001},"geometry":{"type":"Polygon","coordinates":[[[14.94462,38.44176],[14.94459,38.4418],[14.94454,38.44182],[14.9445,38.4418],[14.94451,38.44176],[14.94455,38.44173],[14.94459,38.44171],[14.94462,38.44168],[14.94465,38.44165],[14.94468,38.44166],[14.94466,38.44171],[14.94462,38.44176]]]}},{"type":"Feature","properties":{"kind":"island","area_km2":0.0001},"geometry":{"type":"Polygon","coordinates":[[[14.94329,38.44258],[14.94325,38.44253],[14.94326,38.4425],[14.94326,38.44249],[14.94328,38.44247],[14.94331,38.44246],[14.94335,38.44247],[14.94336,38.44248],[14.94334,38.44253],[14.94332,38.44258],[14.94329,38.44258]]]}},{"type":"Feature","properties":{"kind":"island","area_km2":0.0001},"geometry":{"type":"Polygon","coordinates":[[[14.93003,38.46064],[14.92997,38.4606],[14.92995,38.46056],[14.92995,38.46054],[14.92998,38.46053],[14.93,38.46055],[14.93001,38.46056],[14.93004,38.4606],[14.93006,38.46061],[14.93006,38.46064],[14.93003,38.46064]]]}},{"type":"Feature","properties":{"kind":"island","area_km2":0.0001},"geometry":{"type":"Polygon","coordinates":[[[14.89887,38.48667],[14.8988,38.48669],[14.89876,38.48669],[14.89876,38.48667],[14.89876,38.48666],[14.89884,38.48665],[14.89889,38.48663],[14.89892,38.48663],[14.89893,38.48666],[14.89891,38.48668],[14.89887,38.48667]]]}},{"type":"Feature","properties":{"kind":"island","area_km2":0.0001},"geometry":{"type":"Polygon","coordinates":[[[14.89924,38.49234],[14.89917,38.49231],[14.89916,38.49229],[14.89919,38.49226],[14.89922,38.49223],[14.89926,38.49222],[14.89927,38.49226],[14.89929,38.49231],[14.89927,38.49234],[14.89924,38.49234]]]}},{"type":"Feature","properties":{"kind":"island","area_km2":0.0001},"geometry":{"type":"Polygon","coordinates":[[[14.9651,38.50695],[14.96504,38.50695],[14.965,38.50694],[14.96498,38.5069],[14.96496,38.50685],[14.965,38.50685],[14.96505,38.50688],[14.96509,38.5069],[14.96512,38.50693],[14.9651,38.50695]]]}},{"type":"Feature","properties":{"kind":"island","area_km2":0.0001},"geometry":{"type":"Polygon","coordinates":[[[14.96486,38.5058],[14.9648,38.50579],[14.96477,38.50576],[14.96477,38.50573],[14.96481,38.50572],[14.96486,38.50574],[14.96489,38.50577],[14.96489,38.50578],[14.96486,38.5058]]]}},{"type":"Feature","properties":{"kind":"island","area_km2":0.0001},"geometry":{"type":"Polygon","coordinates":[[[14.96204,38.45362],[14.96198,38.45356],[14.96196,38.45352],[14.96198,38.4535],[14.96205,38.45351],[14.96206,38.45354],[14.96209,38.45356],[14.96213,38.45358],[14.96212,38.45361],[14.96209,38.45362],[14.96204,38.45362]]]}},{"type":"Feature","properties":{"kind":"island","area_km2":0.0001},"geometry":{"type":"Polygon","coordinates":[[[14.9605,38.44678],[14.96047,38.44679],[14.96046,38.44677],[14.96047,38.44674],[14.9605,38.44672],[14.96053,38.4467],[14.96056,38.4467],[14.96057,38.44671],[14.96057,38.44675],[14.96054,38.44678],[14.9605,38.44678]]]}},{"type":"Feature","properties":{"kind":"island","area_km2":0.0001},"geometry":{"type":"Polygon","coordinates":[[[14.96233,38.38029],[14.9623,38.38028],[14.96227,38.38027],[14.96228,38.38025],[14.9623,38.38023],[14.96232,38.38021],[14.96235,38.38022],[14.96238,38.38023],[14.96241,38.38024],[14.96242,38.38025],[14.9624,38.38027],[14.96236,38.38029],[14.96233,38.38029]]]}},{"type":"Feature","properties":{"kind":"island","area_km2":0.0001},"geometry":{"type":"Polygon","coordinates":[[[14.95975,38.38177],[14.95976,38.38173],[14.95979,38.3817],[14.95983,38.38168],[14.95987,38.38169],[14.9599,38.38172],[14.95985,38.38177],[14.95981,38.38178],[14.95978,38.38178],[14.95975,38.38177]]]}},{"type":"Feature","properties":{"kind":"island","area_km2":0.0001},"geometry":{"type":"Polygon","coordinates":[[[14.93839,38.39942],[14.93833,38.3994],[14.93831,38.39937],[14.93828,38.39935],[14.93828,38.39933],[14.93832,38.39931],[14.93836,38.39931],[14.93838,38.39933],[14.93841,38.39937],[14.93842,38.39939],[14.93845,38.3994],[14.93845,38.39942],[14.93843,38.39943],[14.93842,38.39942],[14.93839,38.39942]]]}},{"type":"Feature","properties":{"kind":"island","area_km2":0.0001},"geometry":{"type":"Polygon","coordinates":[[[14.94005,38.40097],[14.94002,38.40096],[14.94,38.40094],[14.94,38.40091],[14.94003,38.40089],[14.94005,38.40089],[14.94008,38.4009],[14.94008,38.40093],[14.94008,38.40096],[14.94005,38.40097]]]}},{"type":"Feature","properties":{"kind":"island","area_km2":0.0001},"geometry":{"type":"Polygon","coordinates":[[[14.93801,38.4025],[14.93795,38.40249],[14.93792,38.40248],[14.93791,38.40247],[14.93792,38.40244],[14.93796,38.40245],[14.938,38.40244],[14.93803,38.40246],[14.93807,38.40248],[14.93808,38.4025],[14.93807,38.40252],[14.93804,38.40251],[14.93801,38.4025]]]}},{"type":"Feature","properties":{"kind":"island","area_km2":0.0001},"geometry":{"type":"Polygon","coordinates":[[[14.93894,38.40985],[14.93889,38.40984],[14.93889,38.4098],[14.93891,38.40977],[14.93894,38.40975],[14.93897,38.40976],[14.93899,38.40982],[14.93897,38.40984],[14.93894,38.40985]]]}},{"type":"Feature","properties":{"kind":"island","area_km2":0.0001},"geometry":{"type":"Polygon","coordinates":[[[14.94196,38.41153],[14.94194,38.4115],[14.94191,38.41149],[14.94191,38.41147],[14.94192,38.41144],[14.94194,38.41144],[14.94195,38.41144],[14.94195,38.41145],[14.94198,38.41146],[14.94202,38.4115],[14.94201,38.41151],[14.94199,38.41153],[14.94196,38.41153]]]}},{"type":"Feature","properties":{"kind":"island","area_km2":0.0001},"geometry":{"type":"Polygon","coordinates":[[[15.07567,38.63096],[15.07563,38.63096],[15.07562,38.63093],[15.07564,38.63091],[15.07568,38.63089],[15.07571,38.6309],[15.07573,38.63092],[15.07572,38.63094],[15.0757,38.63096],[15.07567,38.63096]]]}},{"type":"Feature","properties":{"kind":"island","area_km2":0.0001},"geometry":{"type":"Polygon","coordinates":[[[14.59371,38.55798],[14.59364,38.55795],[14.59364,38.55792],[14.59367,38.55791],[14.59374,38.55788],[14.5938,38.5579],[14.59382,38.55793],[14.59377,38.55795],[14.59371,38.55798]]]}},{"type":"Feature","properties":{"kind":"island","area_km2":0.0001},"geometry":{"type":"Polygon","coordinates":[[[14.55625,38.586],[14.55622,38.58597],[14.55624,38.58593],[14.55628,38.58592],[14.55632,38.58594],[14.55633,38.58598],[14.5563,38.58603],[14.55625,38.586]]]}},{"type":"Feature","properties":{"kind":"island","area_km2":0.0},"geometry":{"type":"Polygon","coordinates":[[[14.75915,38.15916],[14.75919,38.15911],[14.75924,38.1591],[14.75926,38.15914],[14.75922,38.15914],[14.75918,38.15918],[14.75915,38.15916]]]}},{"type":"Feature","properties":{"kind":"island","area_km2":0.0},"geometry":{"type":"Polygon","coordinates":[[[15.04711,38.15009],[15.04714,38.15003],[15.04718,38.15008],[15.04716,38.15014],[15.04711,38.15009]]]}},{"type":"Feature","properties":{"kind":"island","area_km2":0.0},"geometry":{"type":"Polygon","coordinates":[[[15.04701,38.14993],[15.04705,38.14986],[15.0471,38.14989],[15.04708,38.14994],[15.04705,38.14993],[15.04701,38.14993]]]}},{"type":"Feature","properties":{"kind":"island","area_km2":0.0},"geometry":{"type":"Polygon","coordinates":[[[14.81384,38.55087],[14.81386,38.55081],[14.81392,38.55079],[14.81394,38.55082],[14.8139,38.55087],[14.81384,38.55087]]]}},{"type":"Feature","properties":{"kind":"island","area_km2":0.0},"geometry":{"type":"Polygon","coordinates":[[[15.06883,38.62861],[15.06882,38.62859],[15.06884,38.62858],[15.06888,38.62857],[15.0689,38.62858],[15.06891,38.62859],[15.06891,38.62861],[15.06888,38.62861],[15.06886,38.62861],[15.06883,38.62861]]]}},{"type":"Feature","properties":{"kind":"island","area_km2":0.0},"geometry":{"type":"Polygon","coordinates":[[[14.94023,38.44369],[14.94025,38.44369],[14.94026,38.44371],[14.94024,38.44373],[14.94022,38.44373],[14.94021,38.44371],[14.94023,38.44369]]]}},{"type":"Feature","properties":{"kind":"island","area_km2":0.0},"geometry":{"type":"Polygon","coordinates":[[[15.09626,38.63909],[15.09631,38.63905],[15.0963,38.63909],[15.09626,38.6391],[15.09626,38.63909]]]}},{"type":"Feature","properties":{"kind":"island","area_km2":0.0},"geometry":{"type":"Polygon","coordinates":[[[14.52703,38.5819],[14.52698,38.58188],[14.52703,38.58186],[14.52707,38.58188],[14.52703,38.5819]]]}},{"type":"Feature","properties":{"kind":"island","area_km2":0.0},"geometry":{"type":"Polygon","coordinates":[[[14.52724,38.58191],[14.52723,38.58195],[14.5272,38.58191],[14.52722,38.58187],[14.52726,38.58187],[14.52732,38.58194],[14.52724,38.58191]]]}},{"type":"Feature","properties":{"kind":"island","area_km2":0.0},"geometry":{"type":"Polygon","coordinates":[[[14.52468,38.57993],[14.52463,38.57995],[14.52459,38.57994],[14.5246,38.5799],[14.52466,38.57988],[14.52466,38.57991],[14.52468,38.57993]]]}},{"type":"Feature","properties":{"kind":"island","area_km2":0.0},"geometry":{"type":"Polygon","coordinates":[[[14.52655,38.58134],[14.52659,38.58137],[14.5266,38.58139],[14.52657,38.5814],[14.52657,38.58142],[14.52654,38.58139],[14.5265,38.5814],[14.52651,38.58136],[14.52655,38.58134]]]}},{"type":"Feature","properties":{"kind":"island","area_km2":0.0},"geometry":{"type":"Polygon","coordinates":[[[14.52684,38.58192],[14.52682,38.58188],[14.52682,38.58185],[14.52686,38.58185],[14.52691,38.58187],[14.52687,38.58189],[14.52691,38.58192],[14.52686,38.58194],[14.52684,38.58192]]]}},{"type":"Feature","properties":{"kind":"island","area_km2":0.0},"geometry":{"type":"Polygon","coordinates":[[[14.54169,38.58365],[14.54167,38.58369],[14.54164,38.58365],[14.54169,38.58365]]]}},{"type":"Feature","properties":{"kind":"island","area_km2":0.0},"geometry":{"type":"Polygon","coordinates":[[[14.53897,38.57786],[14.53894,38.57783],[14.53899,38.57783],[14.539,38.57785],[14.53897,38.57786]]]}},{"type":"Feature","properties":{"kind":"island","area_km2":0.0},"geometry":{"type":"Polygon","coordinates":[[[14.53925,38.57736],[14.53922,38.57734],[14.53925,38.57731],[14.53928,38.57735],[14.53925,38.57736]]]}},{"type":"Feature","properties":{"kind":"island","area_km2":0.0},"geometry":{"type":"Polygon","coordinates":[[[14.53968,38.57362],[14.53971,38.57361],[14.53974,38.57364],[14.53972,38.57364],[14.53968,38.57362]]]}},{"type":"Feature","properties":{"kind":"island","area_km2":0.0},"geometry":{"type":"Polygon","coordinates":[[[14.53845,38.57682],[14.53845,38.57677],[14.53849,38.57676],[14.53855,38.57681],[14.53853,38.57683],[14.53849,38.57683],[14.53845,38.57682]]]}},{"type":"Feature","properties":{"kind":"island","area_km2":0.0},"geometry":{"type":"Polygon","coordinates":[[[14.5408,38.57305],[14.54085,38.57303],[14.54089,38.57306],[14.54088,38.57308],[14.54083,38.57309],[14.5408,38.57307],[14.5408,38.57305]]]}},{"type":"Feature","properties":{"kind":"island","area_km2":0.0},"geometry":{"type":"Polygon","coordinates":[[[14.53843,38.57691],[14.53846,38.5769],[14.53851,38.57693],[14.53849,38.57695],[14.53846,38.57694],[14.53843,38.57694],[14.53843,38.57691]]]}},{"type":"Feature","properties":{"kind":"island","area_km2":0.0},"geometry":{"type":"Polygon","coordinates":[[[15.09641,38.63899],[15.09653,38.6389],[15.09654,38.63894],[15.09642,38.63902],[15.09641,38.63899]]]}},{"type":"Feature","properties":{"kind":"island","area_km2":0.0},"geometry":{"type":"Polygon","coordinates":[[[15.05417,38.62951],[15.05418,38.62946],[15.05422,38.62943],[15.05428,38.62947],[15.05423,38.62949],[15.05417,38.62951]]]}},{"type":"Feature","properties":{"kind":"island","area_km2":0.0},"geometry":{"type":"Polygon","coordinates":[[[14.55688,38.58606],[14.55685,38.58602],[14.55688,38.58599],[14.55694,38.58599],[14.55694,38.58603],[14.55693,38.58606],[14.55688,38.58606]]]}},{"type":"Feature","properties":{"kind":"island","area_km2":0.0},"geometry":{"type":"Polygon","coordinates":[[[15.29703,37.86277],[15.29706,37.86275],[15.2971,37.86275],[15.29711,37.86277],[15.2971,37.86279],[15.29709,37.86281],[15.29704,37.86279],[15.29703,37.86277]]]}},{"type":"Feature","properties":{"kind":"island","area_km2":0.0},"geometry":{"type":"Polygon","coordinates":[[[15.30147,37.85075],[15.30149,37.85072],[15.30153,37.85073],[15.30154,37.85075],[15.30155,37.85076],[15.30156,37.85078],[15.30155,37.8508],[15.30148,37.85077],[15.30147,37.85075]]]}},{"type":"Feature","properties":{"kind":"island","area_km2":0.0},"geometry":{"type":"Polygon","coordinates":[[[15.29887,37.85864],[15.29895,37.85866],[15.29897,37.85866],[15.29897,37.85868],[15.29895,37.85869],[15.29889,37.85869],[15.29886,37.85866],[15.29887,37.85864]]]}},{"type":"Feature","properties":{"kind":"island","area_km2":0.0},"geometry":{"type":"Polygon","coordinates":[[[15.29697,37.86271],[15.29705,37.8627],[15.29708,37.86267],[15.2971,37.86269],[15.29708,37.86272],[15.29703,37.86274],[15.297,37.86275],[15.29698,37.86274],[15.29697,37.86271]]]}},{"type":"Feature","properties":{"kind":"island","area_km2":0.0},"geometry":{"type":"Polygon","coordinates":[[[15.09974,38.64244],[15.09976,38.64246],[15.09977,38.64248],[15.09975,38.64248],[15.09972,38.64247],[15.09972,38.64245],[15.09974,38.64244]]]}},{"type":"Feature","properties":{"kind":"island","area_km2":0.0},"geometry":{"type":"Polygon","coordinates":[[[14.36041,38.53246],[14.36037,38.53251],[14.36036,38.53249],[14.36038,38.53242],[14.36041,38.53244],[14.36041,38.53246]]]}},{"type":"Feature","properties":{"kind":"island","area_km2":0.0},"geometry":{"type":"Polygon","coordinates":[[[15.29846,37.86647],[15.29849,37.86643],[15.29851,37.86643],[15.29855,37.86645],[15.29854,37.86646],[15.29853,37.8665],[15.29847,37.86649],[15.29846,37.86647]]]}},{"type":"Feature","properties":{"kind":"island","area_km2":0.0},"geometry":{"type":"Polygon","coordinates":[[[14.94296,38.44336],[14.94293,38.44336],[14.94291,38.44334],[14.94292,38.44332],[14.94293,38.44332],[14.94295,38.44333],[14.94297,38.44334],[14.94296,38.44336]]]}},{"type":"Feature","properties":{"kind":"island","area_km2":0.0},"geometry":{"type":"Polygon","coordinates":[[[14.92989,38.46056],[14.92985,38.46056],[14.92981,38.46052],[14.92983,38.46051],[14.92987,38.46049],[14.92991,38.46051],[14.92991,38.46054],[14.92989,38.46056]]]}},{"type":"Feature","properties":{"kind":"island","area_km2":0.0},"geometry":{"type":"Polygon","coordinates":[[[14.96492,38.50677],[14.96488,38.50676],[14.96487,38.50674],[14.96488,38.50671],[14.9649,38.50671],[14.96493,38.50674],[14.96492,38.50677]]]}},{"type":"Feature","properties":{"kind":"island","area_km2":0.0},"geometry":{"type":"Polygon","coordinates":[[[14.96481,38.5064],[14.96476,38.50638],[14.96473,38.50637],[14.96474,38.50635],[14.96479,38.50635],[14.96482,38.50635],[14.96483,38.50637],[14.96483,38.5064],[14.96481,38.5064]]]}},{"type":"Feature","properties":{"kind":"island","area_km2":0.0},"geometry":{"type":"Polygon","coordinates":[[[14.96502,38.5065],[14.965,38.50648],[14.96501,38.50647],[14.96504,38.50647],[14.96505,38.50648],[14.96504,38.50649],[14.96502,38.5065]]]}},{"type":"Feature","properties":{"kind":"island","area_km2":0.0},"geometry":{"type":"Polygon","coordinates":[[[14.96494,38.50579],[14.96492,38.50577],[14.96493,38.50574],[14.96497,38.50574],[14.965,38.50576],[14.965,38.50578],[14.96498,38.5058],[14.96494,38.50579]]]}},{"type":"Feature","properties":{"kind":"island","area_km2":0.0},"geometry":{"type":"Polygon","coordinates":[[[14.96509,38.50583],[14.96505,38.50581],[14.96504,38.5058],[14.96505,38.50577],[14.96509,38.50578],[14.96511,38.5058],[14.96509,38.50583]]]}},{"type":"Feature","properties":{"kind":"island","area_km2":0.0},"geometry":{"type":"Polygon","coordinates":[[[14.96487,38.50546],[14.96484,38.50544],[14.96485,38.50543],[14.96488,38.50543],[14.9649,38.50544],[14.96489,38.50546],[14.96487,38.50546]]]}},{"type":"Feature","properties":{"kind":"island","area_km2":0.0},"geometry":{"type":"Polygon","coordinates":[[[14.96245,38.45137],[14.96237,38.45136],[14.96236,38.45134],[14.96238,38.45131],[14.96242,38.45131],[14.96245,38.45133],[14.96248,38.45135],[14.96247,38.45137],[14.96245,38.45137]]]}},{"type":"Feature","properties":{"kind":"island","area_km2":0.0},"geometry":{"type":"Polygon","coordinates":[[[14.9604,38.44683],[14.96038,38.4468],[14.96034,38.44678],[14.96034,38.44676],[14.96036,38.44675],[14.96039,38.44675],[14.96043,38.44677],[14.96043,38.4468],[14.96043,38.44683],[14.9604,38.44683]]]}},{"type":"Feature","properties":{"kind":"island","area_km2":0.0},"geometry":{"type":"Polygon","coordinates":[[[14.95939,38.44412],[14.95934,38.44413],[14.95933,38.44411],[14.95936,38.44408],[14.95939,38.44409],[14.9594,38.4441],[14.95939,38.44412]]]}},{"type":"Feature","properties":{"kind":"island","area_km2":0.0},"geometry":{"type":"Polygon","coordinates":[[[14.95946,38.44411],[14.95942,38.4441],[14.95942,38.44407],[14.95945,38.44406],[14.95948,38.44408],[14.95948,38.44409],[14.95946,38.44411]]]}},{"type":"Feature","properties":{"kind":"island","area_km2":0.0},"geometry":{"type":"Polygon","coordinates":[[[14.95831,38.44174],[14.95828,38.44172],[14.95828,38.44168],[14.9583,38.44166],[14.95832,38.44165],[14.95834,38.44169],[14.95836,38.44172],[14.95836,38.44174],[14.95833,38.44175],[14.95831,38.44174]]]}},{"type":"Feature","properties":{"kind":"island","area_km2":0.0},"geometry":{"type":"Polygon","coordinates":[[[14.95785,38.44134],[14.9578,38.44131],[14.95777,38.4413],[14.95777,38.44128],[14.95779,38.44127],[14.95783,38.44129],[14.95786,38.44131],[14.95788,38.44132],[14.95789,38.44134],[14.95785,38.44134]]]}},{"type":"Feature","properties":{"kind":"island","area_km2":0.0},"geometry":{"type":"Polygon","coordinates":[[[14.95694,38.44039],[14.95691,38.44038],[14.95689,38.44035],[14.9569,38.44032],[14.95693,38.44031],[14.95695,38.44032],[14.95695,38.44034],[14.95696,38.44036],[14.95697,38.4404],[14.95694,38.44039]]]}},{"type":"Feature","properties":{"kind":"island","area_km2":0.0},"geometry":{"type":"Polygon","coordinates":[[[14.95331,38.43932],[14.95329,38.4393],[14.95328,38.43928],[14.95329,38.43927],[14.95332,38.43927],[14.95334,38.43929],[14.95335,38.43932],[14.95333,38.43933],[14.95331,38.43932]]]}},{"type":"Feature","properties":{"kind":"island","area_km2":0.0},"geometry":{"type":"Polygon","coordinates":[[[14.99637,38.37004],[14.99637,38.37003],[14.99637,38.37],[14.99638,38.37],[14.9964,38.37001],[14.99639,38.37003],[14.99639,38.37004],[14.99637,38.37004]]]}},{"type":"Feature","properties":{"kind":"island","area_km2":0.0},"geometry":{"type":"Polygon","coordinates":[[[14.96307,38.37982],[14.96303,38.37979],[14.96304,38.37978],[14.96306,38.37977],[14.96309,38.37978],[14.96311,38.37979],[14.9631,38.3798],[14.96309,38.37981],[14.96307,38.37982]]]}},{"type":"Feature","properties":{"kind":"island","area_km2":0.0},"geometry":{"type":"Polygon","coordinates":[[[14.963,38.37982],[14.96299,38.37982],[14.96297,38.37981],[14.96299,38.3798],[14.963,38.37979],[14.96302,38.37978],[14.96303,38.3798],[14.96301,38.37982],[14.963,38.37982]]]}},{"type":"Feature","properties":{"kind":"island","area_km2":0.0},"geometry":{"type":"Polygon","coordinates":[[[14.96337,38.37957],[14.96336,38.37955],[14.96335,38.37954],[14.96336,38.37953],[14.96338,38.37954],[14.96339,38.37955],[14.96339,38.37957],[14.96337,38.37957]]]}},{"type":"Feature","properties":{"kind":"island","area_km2":0.0},"geometry":{"type":"Polygon","coordinates":[[[14.96367,38.37937],[14.96367,38.37935],[14.96367,38.37933],[14.96368,38.37933],[14.96369,38.37934],[14.96369,38.37936],[14.96367,38.37937]]]}},{"type":"Feature","properties":{"kind":"island","area_km2":0.0},"geometry":{"type":"Polygon","coordinates":[[[14.96266,38.37998],[14.96263,38.37997],[14.96263,38.37996],[14.96264,38.37995],[14.96268,38.37996],[14.96269,38.37997],[14.96267,38.37997],[14.96266,38.37998]]]}},{"type":"Feature","properties":{"kind":"island","area_km2":0.0},"geometry":{"type":"Polygon","coordinates":[[[14.96241,38.38046],[14.96238,38.38043],[14.96237,38.38042],[14.96239,38.3804],[14.96242,38.3804],[14.96243,38.38041],[14.96243,38.38044],[14.96242,38.38046],[14.96241,38.38046]]]}},{"type":"Feature","properties":{"kind":"island","area_km2":0.0},"geometry":{"type":"Polygon","coordinates":[[[14.96221,38.38059],[14.9622,38.38058],[14.9622,38.38056],[14.96222,38.38055],[14.96224,38.38056],[14.96225,38.38058],[14.96223,38.38059],[14.96221,38.38059]]]}},{"type":"Feature","properties":{"kind":"island","area_km2":0.0},"geometry":{"type":"Polygon","coordinates":[[[14.96163,38.38099],[14.96159,38.38098],[14.96157,38.38096],[14.96158,38.38095],[14.9616,38.38094],[14.96163,38.38094],[14.96165,38.38095],[14.96166,38.38097],[14.96165,38.38098],[14.96163,38.38099]]]}},{"type":"Feature","properties":{"kind":"island","area_km2":0.0},"geometry":{"type":"Polygon","coordinates":[[[14.95996,38.38172],[14.95994,38.38171],[14.95995,38.38169],[14.95997,38.38168],[14.95999,38.38169],[14.95999,38.38171],[14.95996,38.38172]]]}},{"type":"Feature","properties":{"kind":"island","area_km2":0.0},"geometry":{"type":"Polygon","coordinates":[[[14.93987,38.401],[14.93984,38.40098],[14.93984,38.40096],[14.93985,38.40095],[14.93988,38.40095],[14.9399,38.40096],[14.93989,38.40098],[14.93987,38.401]]]}},{"type":"Feature","properties":{"kind":"island","area_km2":0.0},"geometry":{"type":"Polygon","coordinates":[[[14.93995,38.401],[14.93994,38.40099],[14.93995,38.40097],[14.93996,38.40096],[14.93997,38.40097],[14.93999,38.40099],[14.93998,38.401],[14.93995,38.401]]]}},{"type":"Feature","properties":{"kind":"island","area_km2":0.0},"geometry":{"type":"Polygon","coordinates":[[[14.94043,38.40116],[14.94043,38.40114],[14.94044,38.40114],[14.94046,38.40114],[14.94047,38.40115],[14.94045,38.40117],[14.94043,38.40116]]]}},{"type":"Feature","properties":{"kind":"island","area_km2":0.0},"geometry":{"type":"Polygon","coordinates":[[[14.94069,38.40124],[14.94068,38.40122],[14.94069,38.4012],[14.9407,38.4012],[14.94072,38.40121],[14.94072,38.40123],[14.9407,38.40124],[14.94069,38.40124]]]}},{"type":"Feature","properties":{"kind":"island","area_km2":0.0},"geometry":{"type":"Polygon","coordinates":[[[14.93807,38.40266],[14.93804,38.40268],[14.93802,38.40267],[14.93803,38.40265],[14.93803,38.40263],[14.93804,38.40263],[14.93808,38.40263],[14.93809,38.40264],[14.93807,38.40266]]]}},{"type":"Feature","properties":{"kind":"island","area_km2":0.0},"geometry":{"type":"Polygon","coordinates":[[[14.93836,38.4027],[14.93831,38.40269],[14.93831,38.40268],[14.93832,38.40267],[14.93836,38.40268],[14.93837,38.40269],[14.93838,38.4027],[14.93836,38.4027]]]}},{"type":"Feature","properties":{"kind":"island","area_km2":0.0},"geometry":{"type":"Polygon","coordinates":[[[14.93837,38.4026],[14.93835,38.40259],[14.93835,38.40258],[14.93837,38.40258],[14.93839,38.40259],[14.93838,38.4026],[14.93837,38.4026]]]}},{"type":"Feature","properties":{"kind":"island","area_km2":0.0},"geometry":{"type":"Polygon","coordinates":[[[14.93893,38.40697],[14.93889,38.40695],[14.9389,38.40693],[14.93892,38.40692],[14.93895,38.40693],[14.93895,38.40697],[14.93893,38.40697]]]}},{"type":"Feature","properties":{"kind":"island","area_km2":0.0},"geometry":{"type":"Polygon","coordinates":[[[14.93917,38.40695],[14.93917,38.40693],[14.93915,38.40695],[14.93911,38.40694],[14.9391,38.40692],[14.93913,38.4069],[14.93916,38.40689],[14.93918,38.40689],[14.93919,38.40691],[14.93922,38.40691],[14.93921,38.40694],[14.93917,38.40695]]]}},{"type":"Feature","properties":{"kind":"island","area_km2":0.0},"geometry":{"type":"Polygon","coordinates":[[[14.93971,38.40665],[14.93972,38.40663],[14.93971,38.40662],[14.93968,38.40662],[14.93969,38.40661],[14.93972,38.40661],[14.93974,38.40662],[14.93974,38.40664],[14.93972,38.40665],[14.93971,38.40666],[14.93971,38.40665]]]}},{"type":"Feature","properties":{"kind":"island","area_km2":0.0},"geometry":{"type":"Polygon","coordinates":[[[14.93897,38.40875],[14.93896,38.40877],[14.93892,38.40877],[14.93893,38.40875],[14.93894,38.40874],[14.93896,38.40872],[14.93898,38.40873],[14.93897,38.40875]]]}},{"type":"Feature","properties":{"kind":"island","area_km2":0.0},"geometry":{"type":"Polygon","coordinates":[[[14.93868,38.40906],[14.93864,38.40906],[14.93862,38.40905],[14.93862,38.40901],[14.93865,38.40898],[14.93868,38.40899],[14.93869,38.40904],[14.93868,38.40906]]]}},{"type":"Feature","properties":{"kind":"island","area_km2":0.0},"geometry":{"type":"Polygon","coordinates":[[[14.93879,38.40923],[14.93876,38.40921],[14.93878,38.40919],[14.93881,38.4092],[14.93882,38.40922],[14.93879,38.40923]]]}},{"type":"Feature","properties":{"kind":"island","area_km2":0.0},"geometry":{"type":"Polygon","coordinates":[[[14.93901,38.40995],[14.93898,38.40994],[14.93897,38.4099],[14.93901,38.40989],[14.93903,38.40989],[14.93905,38.40993],[14.93901,38.40995]]]}},{"type":"Feature","properties":{"kind":"island","area_km2":0.0},"geometry":{"type":"Polygon","coordinates":[[[14.93933,38.41002],[14.93926,38.41],[14.93927,38.40997],[14.93931,38.40997],[14.93934,38.40997],[14.93937,38.40998],[14.93936,38.41],[14.93933,38.41002]]]}},{"type":"Feature","properties":{"kind":"island","area_km2":0.0},"geometry":{"type":"Polygon","coordinates":[[[14.94004,38.41208],[14.94005,38.41207],[14.94005,38.41205],[14.94006,38.41205],[14.94008,38.41207],[14.94008,38.41208],[14.94006,38.41208],[14.94004,38.41208]]]}},{"type":"Feature","properties":{"kind":"island","area_km2":0.0},"geometry":{"type":"Polygon","coordinates":[[[14.95285,38.4233],[14.95281,38.42329],[14.95277,38.42327],[14.95278,38.42325],[14.95282,38.42324],[14.95285,38.42325],[14.95288,38.42328],[14.95288,38.4233],[14.95285,38.4233]]]}},{"type":"Feature","properties":{"kind":"island","area_km2":0.0},"geometry":{"type":"Polygon","coordinates":[[[14.99921,38.39109],[14.99917,38.39106],[14.99918,38.39104],[14.99923,38.39103],[14.99926,38.39105],[14.99929,38.39107],[14.99927,38.39109],[14.99921,38.39109]]]}},{"type":"Feature","properties":{"kind":"island","area_km2":0.0},"geometry":{"type":"Polygon","coordinates":[[[14.99958,38.39045],[14.99954,38.3904],[14.99954,38.39038],[14.99958,38.39038],[14.9996,38.39041],[14.99961,38.39043],[14.99958,38.39045]]]}}]}